{"type":"FeatureCollection","features":[{"type":"Feature","properties":{"major":false},"geometry":{"type":"LineString","coordinates":[[32.447,52.315],[32.411,52.27],[32.409,52.242],[32.373,52.2],[32.337,52.181],[32.31,52.155],[32.309,52.154],[32.306,52.141],[32.277,52.103],[32.233,52.081],[32.095,52.041],[32.018,52.05],[32.017,52.05],[32.016,52.05],[32.003,52.049],[31.981,52.048],[31.98,52.048],[31.927,52.031],[31.91,52.029],[31.892,52.036],[31.891,52.036],[31.878,52.032],[31.871,52.02],[31.884,51.975],[31.88,51.914],[31.913,51.843],[31.904,51.821],[31.87,51.791],[31.841,51.791],[31.742,51.754],[31.699,51.717],[31.645,51.689],[31.622,51.667],[31.596,51.659],[31.587,51.653],[31.589,51.64],[31.614,51.59],[31.566,51.567],[31.533,51.542],[31.489,51.528],[31.459,51.506]]}},{"type":"Feature","properties":{"major":false},"geometry":{"type":"LineString","coordinates":[[38.452,48.333],[38.431,48.314],[38.425,48.28],[38.415,48.266],[38.372,48.252],[38.273,48.251],[38.238,48.226],[38.142,48.192],[38.141,48.176],[38.189,48.104],[38.22,48.086],[38.247,48.055],[38.279,47.962],[38.339,47.923],[38.396,47.898],[38.418,47.869],[38.443,47.864],[38.469,47.87],[38.498,47.898],[38.533,47.899],[38.6,47.885],[38.606,47.873],[38.563,47.819],[38.694,47.767],[38.702,47.739],[38.724,47.725],[38.733,47.696],[38.742,47.688]]}},{"type":"Feature","properties":{"major":false},"geometry":{"type":"LineString","coordinates":[[35.263,51.047],[35.206,51.039],[35.193,51.04],[35.172,51.041],[35.1,51.014],[35.004,51],[34.922,50.971],[34.886,50.965],[34.831,50.969],[34.819,50.962],[34.822,50.952],[34.854,50.94],[34.859,50.933],[34.804,50.903],[34.799,50.894],[34.851,50.858],[34.854,50.846],[34.786,50.78],[34.732,50.803],[34.71,50.8],[34.694,50.79],[34.687,50.772],[34.688,50.747],[34.716,50.698],[34.698,50.653],[34.66,50.649],[34.624,50.668],[34.525,50.642],[34.513,50.644],[34.486,50.683],[34.462,50.694],[34.44,50.693],[34.4,50.651],[34.399,50.623],[34.381,50.585],[34.359,50.565],[34.35,50.504],[34.342,50.489],[34.296,50.449],[34.255,50.438],[34.206,50.441],[34.184,50.432],[34.15,50.402],[34.101,50.403],[34.038,50.387],[34.025,50.375],[34.037,50.332],[34.035,50.32],[34.011,50.307],[33.97,50.307],[33.948,50.299],[33.928,50.276],[33.911,50.224],[33.922,50.211],[33.996,50.189],[34.002,50.174],[33.976,50.142],[33.977,50.095],[33.951,50.051],[33.955,50.038],[33.971,50.03],[34.017,50.033],[34.032,50.029],[34.03,50.012],[33.993,49.956],[33.989,49.903],[33.979,49.885],[33.943,49.868],[33.832,49.86],[33.784,49.835],[33.765,49.811],[33.754,49.779],[33.75,49.723],[33.791,49.657],[33.787,49.636],[33.766,49.595],[33.766,49.571],[33.797,49.487],[33.81,49.475],[33.807,49.429],[33.82,49.422],[33.866,49.423],[33.875,49.416],[33.867,49.406],[33.824,49.39],[33.744,49.392],[33.728,49.374],[33.698,49.356],[33.669,49.321],[33.63,49.304],[33.623,49.289],[33.641,49.229],[33.636,49.191],[33.672,49.162],[33.619,49.076],[33.582,49.045],[33.583,49.034],[33.604,49.016],[33.61,49]]}},{"type":"Feature","properties":{"major":false},"geometry":{"type":"LineString","coordinates":[[33.914,46.648],[33.903,46.643],[33.905,46.626],[33.943,46.558],[33.944,46.538],[33.869,46.514],[33.828,46.485],[33.684,46.422],[33.647,46.399],[33.54,46.367],[33.513,46.354],[33.448,46.297],[33.422,46.283],[33.312,46.264],[33.235,46.224]]}},{"type":"Feature","properties":{"major":false},"geometry":{"type":"MultiLineString","coordinates":[[[33.276,47.922],[33.282,47.913],[33.325,47.898],[33.333,47.889],[33.31,47.852],[33.263,47.82],[33.254,47.803],[33.259,47.776],[33.241,47.751],[33.229,47.713],[33.239,47.693],[33.24,47.675],[33.206,47.62],[33.224,47.576],[33.213,47.554],[33.283,47.539],[33.288,47.514],[33.279,47.475],[33.333,47.481],[33.361,47.462],[33.381,47.46],[33.387,47.434],[33.37,47.421],[33.353,47.385],[33.302,47.366],[33.285,47.34],[33.22,47.301],[33.185,47.254],[33.135,47.231],[33.125,47.205],[33.084,47.209],[33.043,47.18],[32.998,47.177],[32.988,47.164],[32.989,47.137],[32.976,47.129],[32.925,47.099],[32.863,47.094],[32.841,47.081],[32.842,47.043],[32.819,47.02],[32.818,47.012],[32.825,46.954],[32.835,46.933],[32.826,46.914],[32.833,46.898],[32.828,46.886],[32.796,46.863],[32.786,46.85],[32.803,46.807],[32.797,46.794],[32.761,46.772],[32.75,46.756],[32.752,46.741],[32.764,46.731],[32.813,46.714],[32.822,46.694]],[[32.413,48.741],[32.424,48.763],[32.415,48.818],[32.428,48.834],[32.492,48.824],[32.563,48.831],[32.636,48.805],[32.686,48.804],[32.771,48.781],[32.854,48.782],[32.924,48.754],[33.02,48.741],[33.064,48.72],[33.092,48.697],[33.106,48.659],[33.158,48.611],[33.18,48.576],[33.165,48.498],[33.168,48.462],[33.191,48.424],[33.259,48.345],[33.292,48.325],[33.295,48.309],[33.32,48.288],[33.376,48.201],[33.374,48.176],[33.355,48.155],[33.309,48.125],[33.3,48.109],[33.279,48.06],[33.286,48.025]]]}},{"type":"Feature","properties":{"major":false},"geometry":{"type":"LineString","coordinates":[[30.088,49.422],[30.108,49.435],[30.115,49.464],[30.13,49.481],[30.156,49.494],[30.188,49.5],[30.219,49.496],[30.293,49.468],[30.349,49.419],[30.399,49.399],[30.512,49.38],[30.645,49.34],[30.684,49.338],[30.699,49.33],[30.703,49.32],[30.68,49.291],[30.695,49.267],[30.717,49.258],[30.786,49.252],[30.847,49.262],[30.909,49.238],[30.921,49.226],[30.929,49.169],[30.956,49.072],[30.975,49.035],[30.98,49.004],[30.973,48.933],[30.979,48.883],[30.963,48.864],[30.918,48.833],[30.875,48.768],[30.842,48.747],[30.812,48.69],[30.784,48.653],[30.786,48.602],[30.776,48.582],[30.745,48.549],[30.742,48.525],[30.749,48.504],[30.761,48.492],[30.789,48.468],[30.829,48.447],[30.84,48.403],[30.891,48.352],[30.895,48.339],[30.865,48.31],[30.858,48.287],[30.858,48.261],[30.872,48.235],[30.87,48.221],[30.86,48.21],[30.825,48.193],[30.813,48.175],[30.81,48.151],[30.817,48.086],[30.858,48.041]]}},{"type":"Feature","properties":{"major":false},"geometry":{"type":"LineString","coordinates":[[38.066,48.107],[37.974,48.044],[37.974,48.022],[38.001,47.997],[38.075,47.958],[38.097,47.943],[38.109,47.925],[38.097,47.905],[38.005,47.855],[38.017,47.831],[38.01,47.806],[38.031,47.792],[38.043,47.769],[38.075,47.732],[38.079,47.712],[38.059,47.683],[38.062,47.651],[38.052,47.633],[38.032,47.62],[37.992,47.612],[37.982,47.601],[37.981,47.588],[37.996,47.573],[37.999,47.56],[37.991,47.546],[37.975,47.532],[37.931,47.518],[37.917,47.501],[37.89,47.491],[37.879,47.479],[37.825,47.33],[37.757,47.265],[37.74,47.22],[37.719,47.205],[37.703,47.179],[37.666,47.165],[37.589,47.12],[37.569,47.087]]}},{"type":"Feature","properties":{"major":false},"geometry":{"type":"MultiLineString","coordinates":[[[35.422,46.44],[35.454,46.415]],[[36.41,47.25],[36.373,47.228],[36.362,47.192],[36.349,47.179],[36.315,47.166],[35.966,47.259],[35.7,47.258],[35.595,47.229],[35.551,47.175],[35.532,47.136],[35.491,47.083],[35.469,47.065],[35.449,46.987],[35.473,46.975],[35.478,46.966],[35.431,46.899],[35.43,46.869],[35.408,46.844],[35.405,46.823],[35.378,46.796],[35.344,46.745],[35.3,46.707]]]}},{"type":"Feature","properties":{"major":false},"geometry":{"type":"MultiLineString","coordinates":[[[35.159,48.513],[35.126,48.474],[35.089,48.441]],[[37.459,47.57],[37.358,47.566],[37.33,47.559],[37.278,47.521],[37.244,47.506],[37.215,47.5],[37.186,47.503],[37.126,47.524],[37.076,47.568],[36.94,47.642],[36.915,47.667],[36.861,47.689],[36.835,47.714],[36.815,47.753],[36.809,47.793],[36.824,47.839],[36.82,47.916],[36.786,47.936],[36.762,47.97],[36.738,47.989],[36.729,48.01],[36.728,48.035],[36.742,48.056],[36.724,48.076],[36.66,48.088],[36.589,48.079],[36.577,48.067],[36.571,48],[36.513,47.967],[36.487,47.974],[36.413,47.961],[36.371,47.977],[36.356,47.976],[36.327,47.962],[36.263,47.988],[36.188,47.969],[36.15,47.98],[36.139,47.993],[36.139,48.033],[36.1,48.084],[36.095,48.119],[36.086,48.132],[36.066,48.14],[36.009,48.145],[35.991,48.16],[35.985,48.182],[35.993,48.217],[35.983,48.231],[35.987,48.26],[35.973,48.277],[35.973,48.297],[35.942,48.326],[35.884,48.402],[35.911,48.436],[35.917,48.452],[35.914,48.467],[35.891,48.49],[35.851,48.51],[35.85,48.52],[35.915,48.549],[35.918,48.564],[35.868,48.584],[35.832,48.613],[35.76,48.635],[35.702,48.639],[35.632,48.664],[35.456,48.752],[35.416,48.764],[35.346,48.768],[35.336,48.754],[35.351,48.699],[35.33,48.679],[35.255,48.637],[35.208,48.585]]]}},{"type":"Feature","properties":{"major":false},"geometry":{"type":"MultiLineString","coordinates":[[[30.746,46.577],[30.771,46.534]],[[29.59,47.728],[29.642,47.708],[29.695,47.659],[29.722,47.645],[29.825,47.609],[29.936,47.53],[30.014,47.51],[30.099,47.472],[30.153,47.436],[30.185,47.389],[30.23,47.356],[30.342,47.237],[30.413,47.131],[30.463,47.069],[30.494,46.947],[30.517,46.906],[30.544,46.88],[30.585,46.857],[30.603,46.764]]]}},{"type":"Feature","properties":{"major":false},"geometry":{"type":"LineString","coordinates":[[25.528,49.873],[25.558,49.85],[25.58,49.847],[25.659,49.878],[25.761,49.906],[25.931,49.916],[26.013,49.902],[26.1,49.907],[26.136,49.917],[26.247,49.967],[26.257,49.984],[26.272,49.99],[26.398,49.997],[26.44,50.005],[26.582,50.073],[26.61,50.079],[26.669,50.071],[26.69,50.092],[26.708,50.099],[26.747,50.096],[26.77,50.104],[26.793,50.12],[26.819,50.161],[26.863,50.191],[26.895,50.234],[26.896,50.248],[26.889,50.261],[26.819,50.322],[26.767,50.337],[26.687,50.323],[26.573,50.337],[26.543,50.359],[26.531,50.402],[26.547,50.441],[26.525,50.491],[26.53,50.504],[26.559,50.53],[26.569,50.56],[26.64,50.608],[26.644,50.636],[26.629,50.657],[26.616,50.667],[26.571,50.653],[26.551,50.65],[26.534,50.655],[26.522,50.668],[26.519,50.721],[26.508,50.735],[26.489,50.742],[26.313,50.739],[26.228,50.721],[26.173,50.732],[26.05,50.852],[26.053,50.861],[26.067,50.865],[26.116,50.871],[26.164,50.888],[26.209,50.913],[26.246,50.945],[26.303,50.96],[26.317,50.975],[26.325,50.998],[26.326,51.022],[26.313,51.054],[26.313,51.131],[26.335,51.159],[26.336,51.197],[26.384,51.242],[26.36,51.297],[26.352,51.349],[26.357,51.362],[26.369,51.374],[26.554,51.467],[26.568,51.493],[26.569,51.554],[26.583,51.575],[26.594,51.611],[26.668,51.648],[26.692,51.669],[26.713,51.705],[26.741,51.725],[26.801,51.749],[26.84,51.747],[26.843,51.752]]}},{"type":"Feature","properties":{"major":false},"geometry":{"type":"LineString","coordinates":[[24.851,50.831],[24.849,50.866],[24.835,50.896],[24.84,50.924],[24.83,50.946],[24.832,50.956],[24.876,50.963],[24.893,50.974],[24.909,51.012],[24.924,51.019],[25.003,51.027],[25.064,51.042],[25.161,51.045],[25.316,51.115],[25.37,51.133],[25.37,51.147],[25.353,51.163],[25.235,51.225],[25.211,51.272],[25.207,51.301],[25.23,51.353],[25.218,51.393],[25.223,51.428],[25.246,51.469],[25.322,51.527],[25.374,51.595],[25.389,51.621],[25.394,51.672],[25.404,51.69],[25.495,51.743],[25.552,51.796],[25.6,51.796],[25.671,51.823],[25.771,51.83],[25.865,51.866],[25.999,51.898],[26.009,51.904],[26.019,51.909]]}},{"type":"Feature","properties":{"major":false},"geometry":{"type":"LineString","coordinates":[[24.871,47.816],[24.865,47.835],[24.849,47.852],[24.787,47.899],[24.719,47.924],[24.689,47.953],[24.69,47.971],[24.703,47.995],[24.754,48.041],[24.76,48.053],[24.733,48.129],[24.743,48.148],[24.767,48.157],[24.852,48.165],[24.896,48.182],[24.914,48.182],[24.934,48.175],[24.964,48.145],[24.989,48.131],[25.018,48.126],[25.044,48.131],[25.06,48.142],[25.112,48.231],[25.128,48.245],[25.18,48.262],[25.255,48.328],[25.336,48.38],[25.388,48.401],[25.438,48.411],[25.484,48.412],[25.645,48.377]]}},{"type":"Feature","properties":{"major":false},"geometry":{"type":"LineString","coordinates":[[22.881,48.908],[22.88,48.888],[22.924,48.857],[22.968,48.791],[23.026,48.742],[23.045,48.707],[23.051,48.666],[23.049,48.627],[23.033,48.579],[23.017,48.571],[22.96,48.565],[22.893,48.541],[22.864,48.521],[22.834,48.489],[22.809,48.479],[22.703,48.455],[22.62,48.456],[22.567,48.438],[22.521,48.437],[22.47,48.419],[22.382,48.405],[22.351,48.407],[22.26,48.447],[22.212,48.452],[22.155,48.473],[22.134,48.471],[22.133,48.471]]}},{"type":"Feature","properties":{"major":false},"geometry":{"type":"MultiLineString","coordinates":[[[40.04,49.603],[39.923,49.506],[39.839,49.402],[39.835,49.37],[39.841,49.337],[39.865,49.272],[39.867,49.254],[39.856,49.227],[39.85,49.17],[39.83,49.123],[39.839,49.095],[39.839,49.058],[39.845,49.044]],[[39.657,48.588],[39.632,48.587],[39.631,48.587],[39.702,48.747],[39.711,48.755],[39.722,48.758],[39.736,48.762],[39.768,48.8],[39.836,48.88]]]}},{"type":"Feature","properties":{"major":false},"geometry":{"type":"LineString","coordinates":[[25.255,48.014],[25.271,48.011],[25.296,48.026],[25.301,48.038],[25.291,48.072],[25.298,48.114],[25.32,48.156],[25.354,48.177],[25.476,48.221],[25.561,48.224],[25.62,48.19],[25.698,48.171],[25.725,48.138],[25.804,48.109],[25.875,48.062],[25.922,48.041],[26.009,48.016],[26.045,47.984],[26.062,47.978]]}},{"type":"Feature","properties":{"major":false},"geometry":{"type":"LineString","coordinates":[[28.087,50.613],[28.01,50.736],[28.022,50.748],[28.107,50.771],[28.143,50.818],[28.189,50.839],[28.232,50.872],[28.256,50.879],[28.315,50.869],[28.448,50.872],[28.48,50.878],[28.646,50.958],[28.667,50.973],[28.718,51.011],[28.733,51.03],[28.745,51.075],[28.776,51.096],[28.827,51.111],[28.928,51.119],[28.984,51.137],[29.065,51.189],[29.187,51.23],[29.278,51.273],[29.32,51.278],[29.441,51.253],[29.53,51.266],[29.625,51.265],[29.704,51.283],[29.815,51.285],[29.851,51.278],[29.922,51.231],[30.079,51.198],[30.133,51.216],[30.194,51.248],[30.23,51.275]]}},{"type":"Feature","properties":{"major":false},"geometry":{"type":"LineString","coordinates":[[28.315,51.38],[28.343,51.4],[28.349,51.442],[28.368,51.467],[28.376,51.505],[28.442,51.556],[28.462,51.565],[28.487,51.572],[28.488,51.572],[28.496,51.571],[28.603,51.554],[28.604,51.554]]}},{"type":"Feature","properties":{"major":false},"geometry":{"type":"LineString","coordinates":[[22.866,49.031],[22.877,49.053],[22.875,49.069],[22.86,49.09],[22.754,49.182],[22.704,49.192],[22.702,49.193]]}},{"type":"Feature","properties":{"major":false},"geometry":{"type":"LineString","coordinates":[[30.803,51.939],[30.858,51.958],[30.879,51.974],[30.88,51.988],[30.896,51.999],[30.902,51.998],[30.909,51.997],[30.941,51.994],[30.95,52.007],[30.94,52.02],[30.926,52.021],[30.911,52.023],[30.924,52.043],[30.918,52.059],[30.941,52.081]]}},{"type":"Feature","properties":{"major":false},"geometry":{"type":"LineString","coordinates":[[36.187,49.41],[36.169,49.392],[36.162,49.374],[36.169,49.357],[36.233,49.275],[36.246,49.244],[36.251,49.174],[36.288,49.143],[36.292,49.134],[36.266,49.11],[36.126,49.058],[36.047,48.996],[36.03,48.992],[35.98,49.018],[35.962,49.018],[35.926,48.991],[35.918,48.971],[35.794,48.934],[35.711,48.954],[35.679,48.948],[35.649,48.959],[35.619,48.959],[35.579,48.976],[35.56,48.972],[35.462,48.975],[35.42,49],[35.361,49.022],[35.284,49.077],[35.219,49.111],[35.199,49.134],[35.17,49.147],[35.103,49.157],[35.064,49.154],[35.041,49.163],[34.984,49.164],[34.926,49.183],[34.906,49.173],[34.891,49.148],[34.867,49.145],[34.857,49.153],[34.871,49.166],[34.869,49.171],[34.831,49.181],[34.809,49.174],[34.778,49.174],[34.726,49.146],[34.61,49.127],[34.498,49.094],[34.475,49.046],[34.477,49.019],[34.5,48.992],[34.496,48.968],[34.509,48.959],[34.513,48.938],[34.538,48.924],[34.544,48.908],[34.538,48.892],[34.521,48.88],[34.468,48.884],[34.43,48.848],[34.364,48.825]]}},{"type":"Feature","properties":{"major":false},"geometry":{"type":"LineString","coordinates":[[33.637,46.321],[33.61,46.305],[33.578,46.27],[33.57,46.257],[33.573,46.24],[33.61,46.213],[33.668,46.218]]}},{"type":"Feature","properties":{"major":false},"geometry":{"type":"LineString","coordinates":[[33.351,52.371],[33.306,52.363],[33.305,52.357],[33.304,52.354],[33.313,52.344],[33.344,52.339],[33.388,52.316]]}},{"type":"Feature","properties":{"major":false},"geometry":{"type":"MultiLineString","coordinates":[[[35.17,45.51],[35.194,45.515]],[[34.345,44.828],[34.31,44.866],[34.292,44.874],[34.237,44.878],[34.188,44.903],[34.132,44.951],[34.048,45.001],[34.018,45.029],[34.001,45.055],[34.004,45.1],[34.087,45.169],[34.093,45.202],[34.139,45.269],[34.154,45.282],[34.217,45.292],[34.297,45.336],[34.359,45.381],[34.498,45.431],[34.561,45.469],[34.645,45.474],[34.689,45.468],[34.791,45.475],[34.838,45.503],[34.897,45.559],[34.974,45.584],[35.011,45.618]]]}},{"type":"Feature","properties":{"major":false},"geometry":{"type":"LineString","coordinates":[[38.914,49.836],[38.932,49.807],[38.964,49.755],[39.02,49.723],[39.029,49.704],[39.037,49.65],[39.032,49.631],[39.066,49.601],[39.085,49.565],[39.086,49.545],[39.077,49.528],[39.036,49.51],[38.959,49.445],[38.952,49.404],[38.937,49.385],[38.918,49.33],[38.89,49.286],[38.903,49.22],[38.899,49.154],[38.886,49.12],[38.944,49.036],[38.972,49.008],[38.989,48.963],[39.043,48.928],[39.04,48.872],[39.055,48.844],[39.129,48.779],[39.151,48.748],[39.184,48.738],[39.211,48.705]]}},{"type":"Feature","properties":{"major":false},"geometry":{"type":"LineString","coordinates":[[34.059,50.745],[34.002,50.754],[33.975,50.751],[33.944,50.735],[33.96,50.705],[33.955,50.692],[33.933,50.683],[33.863,50.675],[33.834,50.658],[33.819,50.638],[33.805,50.578],[33.79,50.552],[33.749,50.522],[33.741,50.507],[33.739,50.483],[33.723,50.469],[33.72,50.46],[33.755,50.443],[33.766,50.428],[33.771,50.404],[33.771,50.373],[33.764,50.346],[33.74,50.321],[33.747,50.299],[33.736,50.251],[33.761,50.223],[33.72,50.155],[33.731,50.115],[33.688,50.066],[33.687,50.047],[33.661,50.009],[33.619,49.98],[33.59,49.973],[33.566,49.948],[33.459,49.867],[33.43,49.854],[33.424,49.832],[33.41,49.816],[33.389,49.805],[33.328,49.792],[33.284,49.721],[33.288,49.685],[33.275,49.67],[33.271,49.653],[33.278,49.636],[33.318,49.618],[33.353,49.591],[33.4,49.591],[33.466,49.566],[33.523,49.566],[33.608,49.523],[33.651,49.476],[33.67,49.464],[33.688,49.465],[33.721,49.48],[33.797,49.487]]}},{"type":"Feature","properties":{"major":false},"geometry":{"type":"LineString","coordinates":[[35.538,50.452],[35.486,50.44],[35.429,50.414],[35.399,50.428],[35.377,50.426],[35.358,50.415],[35.333,50.383],[35.282,50.377],[35.259,50.363],[35.216,50.376],[35.067,50.39],[35.005,50.41],[34.966,50.409],[34.928,50.399],[34.857,50.372],[34.844,50.36],[34.834,50.341],[34.831,50.313],[34.809,50.298],[34.795,50.262],[34.751,50.221],[34.698,50.152],[34.689,50.125],[34.699,50.046],[34.693,50.027],[34.667,50.001],[34.658,49.972],[34.657,49.943],[34.687,49.908],[34.688,49.891],[34.656,49.842],[34.622,49.806],[34.614,49.78],[34.595,49.705],[34.597,49.672],[34.584,49.626],[34.586,49.606],[34.603,49.576],[34.599,49.546],[34.604,49.521],[34.589,49.498],[34.587,49.479],[34.561,49.43],[34.549,49.42],[34.462,49.413],[34.438,49.405],[34.397,49.378],[34.339,49.352],[34.309,49.329],[34.288,49.323],[34.279,49.311],[34.277,49.293],[34.289,49.262],[34.286,49.242],[34.259,49.205],[34.272,49.177],[34.279,49.123],[34.309,49.101],[34.324,49.076],[34.323,49.065],[34.298,49.041],[34.286,49.02],[34.291,48.979],[34.301,48.964],[34.276,48.918],[34.272,48.898],[34.277,48.888],[34.34,48.854],[34.354,48.841],[34.358,48.824],[34.354,48.806],[34.326,48.771],[34.287,48.749]]}},{"type":"Feature","properties":{"major":false},"geometry":{"type":"LineString","coordinates":[[25.215,49.983],[25.249,49.976],[25.347,49.978],[25.427,49.956],[25.531,49.954],[25.561,49.956],[25.577,49.966],[25.632,50.017],[25.631,50.033],[25.596,50.081],[25.604,50.095],[25.683,50.145],[25.719,50.18],[25.647,50.259],[25.639,50.273],[25.639,50.291],[25.654,50.309],[25.732,50.355],[25.74,50.37],[25.732,50.397],[25.751,50.428],[25.75,50.44],[25.691,50.472],[25.674,50.498],[25.588,50.519],[25.502,50.515],[25.4,50.56],[25.387,50.576],[25.385,50.594],[25.391,50.621],[25.369,50.649],[25.382,50.701],[25.378,50.718],[25.371,50.731],[25.357,50.739],[25.323,50.746],[25.313,50.77],[25.293,50.791],[25.294,50.828],[25.273,50.86],[25.272,50.89],[25.279,50.92],[25.336,51.004],[25.353,51.045],[25.378,51.056],[25.396,51.073],[25.441,51.079],[25.477,51.073],[25.549,51.089],[25.632,51.121],[25.693,51.117],[25.732,51.124],[25.762,51.141],[25.788,51.183],[25.816,51.205],[25.885,51.231],[25.937,51.236],[25.945,51.252],[25.932,51.279],[25.85,51.344],[25.84,51.37],[25.858,51.387],[25.949,51.423],[25.975,51.439],[26.006,51.474],[26.094,51.513],[26.13,51.548],[26.125,51.582],[26.13,51.595],[26.195,51.667],[26.241,51.706],[26.27,51.761],[26.273,51.781],[26.262,51.814],[26.237,51.855]]}},{"type":"Feature","properties":{"major":false},"geometry":{"type":"LineString","coordinates":[[32.459,50.906],[32.44,50.93],[32.451,50.96],[32.443,50.967],[32.249,50.956],[32.164,50.938],[32.153,50.926],[32.168,50.888],[32.168,50.854],[32.188,50.823],[32.195,50.796],[32.262,50.684],[32.277,50.668],[32.337,50.639],[32.348,50.62],[32.387,50.615],[32.461,50.625],[32.472,50.628],[32.498,50.657],[32.511,50.658],[32.618,50.641],[32.653,50.652],[32.675,50.65],[32.708,50.632],[32.719,50.585],[32.719,50.556],[32.714,50.534],[32.701,50.522],[32.661,50.51],[32.612,50.519],[32.58,50.507],[32.528,50.48],[32.49,50.442],[32.49,50.401],[32.506,50.371],[32.5,50.347],[32.539,50.248],[32.576,50.225],[32.59,50.192],[32.602,50.183],[32.646,50.198],[32.671,50.196],[32.72,50.171],[32.736,50.172],[32.757,50.176],[32.804,50.2],[32.823,50.183],[32.89,50.176],[32.957,50.155],[33.035,50.166],[33.056,50.161],[33.09,50.128],[33.123,50.118],[33.128,50.106],[33.096,50.054],[33.068,50.027],[33.026,50.005],[33.017,49.962],[32.979,49.934],[32.973,49.92],[32.975,49.889],[32.968,49.872],[32.918,49.84],[32.902,49.788],[32.89,49.771],[32.749,49.75],[32.73,49.738],[32.691,49.678],[32.701,49.661],[32.706,49.627],[32.727,49.609],[32.737,49.584],[32.736,49.578],[32.717,49.57]]}},{"type":"Feature","properties":{"major":false},"geometry":{"type":"LineString","coordinates":[[32.544,51.163],[32.505,51.182],[32.457,51.191],[32.286,51.124],[32.179,51.138],[32.172,51.131],[32.173,51.114],[32.184,51.076],[32.13,51.038],[32.106,51.032],[32.057,51.031],[32.025,51.011],[31.922,50.984],[31.84,50.989],[31.816,50.997],[31.793,51.022],[31.745,51.03],[31.717,51.042],[31.677,51.04],[31.635,51.061],[31.605,51.058],[31.556,51.034],[31.498,51.02],[31.479,51.003],[31.434,50.99],[31.4,50.971],[31.356,50.995],[31.326,50.997],[31.3,50.991],[31.282,50.974],[31.253,50.972],[31.209,50.933],[31.202,50.923],[31.207,50.91],[31.274,50.872],[31.263,50.851],[31.18,50.789],[31.165,50.762],[31.149,50.687],[31.169,50.635],[31.16,50.594],[31.181,50.525],[31.173,50.473],[31.204,50.443],[31.327,50.386],[31.341,50.366],[31.345,50.346],[31.374,50.313],[31.381,50.287],[31.396,50.27],[31.458,50.24],[31.478,50.221],[31.508,50.205],[31.518,50.186],[31.518,50.167],[31.487,50.132],[31.471,50.077],[31.435,50.039],[31.441,50.014]]}},{"type":"Feature","properties":{"major":false},"geometry":{"type":"LineString","coordinates":[[33.489,51.133],[33.562,51.131],[33.651,51.089],[33.7,51.076],[33.829,51.072],[33.953,51.016],[33.972,50.999],[34.005,50.945],[34.014,50.912],[34.032,50.894],[34.037,50.846],[34.021,50.841],[33.953,50.85],[33.822,50.855],[33.795,50.852],[33.747,50.827],[33.693,50.826],[33.63,50.814],[33.565,50.79],[33.52,50.761],[33.476,50.721],[33.468,50.695],[33.404,50.685],[33.37,50.668],[33.391,50.633],[33.389,50.619],[33.356,50.594],[33.291,50.58],[33.265,50.562],[33.242,50.532],[33.257,50.478],[33.288,50.446],[33.291,50.421],[33.301,50.4],[33.41,50.382],[33.423,50.369],[33.385,50.335],[33.401,50.305],[33.36,50.282],[33.349,50.265],[33.357,50.213],[33.348,50.205],[33.321,50.204],[33.302,50.197],[33.246,50.129],[33.213,50.11],[33.181,50.101],[33.128,50.106]]}},{"type":"Feature","properties":{"major":false},"geometry":{"type":"MultiLineString","coordinates":[[[28.747,45.311],[28.789,45.322]],[[28.584,45.777],[28.588,45.763],[28.594,45.742],[28.587,45.707],[28.595,45.682]]]}},{"type":"Feature","properties":{"major":false},"geometry":{"type":"LineString","coordinates":[[27.946,50.81],[27.892,50.826],[27.841,50.823],[27.82,50.831],[27.796,50.857],[27.808,50.897],[27.805,50.909],[27.724,50.947],[27.682,50.957],[27.703,51.009],[27.698,51.028],[27.657,51.067],[27.569,51.107],[27.557,51.12],[27.556,51.133],[27.59,51.172],[27.578,51.193],[27.582,51.209],[27.595,51.221],[27.667,51.239],[27.723,51.287],[27.797,51.329],[27.83,51.353],[27.885,51.422],[27.895,51.446],[27.893,51.485],[27.873,51.535],[27.829,51.597],[27.83,51.608],[27.855,51.615]]}},{"type":"Feature","properties":{"major":false},"geometry":{"type":"LineString","coordinates":[[37.216,48.46],[37.108,48.492],[37.02,48.492],[36.972,48.483],[36.932,48.469],[36.89,48.438],[36.854,48.425],[36.839,48.39],[36.806,48.378],[36.782,48.385],[36.723,48.422],[36.609,48.438],[36.529,48.475],[36.452,48.475],[36.428,48.466],[36.323,48.404],[36.262,48.398],[36.236,48.401],[36.177,48.431],[36.12,48.428],[36.105,48.435],[36.056,48.467],[36.042,48.515],[36.029,48.527],[35.918,48.564]]}},{"type":"Feature","properties":{"major":false},"geometry":{"type":"LineString","coordinates":[[40.098,49.601],[40.096,49.594],[40.084,49.535],[40.081,49.521]]}},{"type":"Feature","properties":{"major":false},"geometry":{"type":"MultiLineString","coordinates":[[[31.181,46.655],[31.188,46.629]],[[31.057,46.897],[31.058,46.897]],[[29.527,47.851],[29.621,47.85],[29.82,47.817],[29.867,47.8],[29.905,47.777],[29.953,47.731],[29.972,47.723],[30.062,47.703],[30.269,47.642],[30.323,47.604],[30.391,47.572],[30.448,47.528],[30.541,47.432],[30.561,47.396],[30.665,47.294],[30.789,47.235],[30.852,47.226],[30.886,47.208],[30.922,47.199],[30.932,47.178],[30.966,47.153],[30.948,47.106],[30.987,47.056],[31.002,47.015]]]}},{"type":"Feature","properties":{"major":false},"geometry":{"type":"LineString","coordinates":[[24.841,50.759],[24.845,50.771],[24.837,50.784],[24.781,50.807],[24.656,50.876],[24.49,50.938],[24.428,50.955],[24.378,50.986],[24.336,50.991],[24.32,51.002],[24.312,51.046],[24.324,51.068],[24.344,51.083],[24.467,51.093],[24.511,51.107],[24.586,51.114],[24.611,51.126],[24.679,51.195],[24.712,51.239],[24.751,51.273],[24.764,51.303],[24.783,51.318],[24.796,51.347],[24.823,51.372],[24.818,51.399],[24.823,51.421],[24.777,51.447],[24.754,51.479],[24.777,51.551],[24.783,51.603],[24.808,51.64],[24.815,51.683],[24.835,51.72],[24.833,51.747],[24.842,51.77],[24.877,51.803],[24.937,51.839],[25.014,51.867],[25.094,51.88],[25.163,51.878],[25.256,51.863],[25.44,51.854],[25.49,51.843],[25.667,51.873],[25.741,51.896],[25.793,51.906],[25.903,51.911],[25.908,51.912]]}},{"type":"Feature","properties":{"major":false},"geometry":{"type":"LineString","coordinates":[[32.192,48.746],[32.186,48.709],[32.19,48.674],[32.219,48.626],[32.238,48.556],[32.278,48.487],[32.333,48.439],[32.363,48.429],[32.375,48.398],[32.395,48.376],[32.41,48.346],[32.437,48.326],[32.465,48.291],[32.51,48.267],[32.521,48.243],[32.516,48.22],[32.502,48.209],[32.383,48.171],[32.358,48.149],[32.345,48.114],[32.35,48.075],[32.369,48.041],[32.424,47.99],[32.429,47.934],[32.421,47.903],[32.398,47.861],[32.394,47.827],[32.366,47.779],[32.368,47.731],[32.348,47.649],[32.348,47.604],[32.33,47.564],[32.348,47.537],[32.329,47.472],[32.288,47.424],[32.266,47.384],[32.238,47.361],[32.227,47.342],[32.226,47.318],[32.246,47.268],[32.238,47.231],[32.242,47.187],[32.214,47.151],[32.158,47.054],[32.101,47.037],[32.022,46.99],[32.007,46.988],[31.969,46.999]]}},{"type":"Feature","properties":{"major":false},"geometry":{"type":"LineString","coordinates":[[29.067,49.458],[29.07,49.443],[29.083,49.431],[29.11,49.423],[29.184,49.423],[29.215,49.433],[29.235,49.454],[29.262,49.5],[29.284,49.513],[29.316,49.519],[29.391,49.509],[29.454,49.477],[29.484,49.473],[29.512,49.475],[29.55,49.497],[29.586,49.501],[29.762,49.475],[29.858,49.493],[29.902,49.511],[29.927,49.529],[29.931,49.542],[29.92,49.572],[29.924,49.59],[29.951,49.619],[29.951,49.654],[29.957,49.677],[29.972,49.698],[30.005,49.721],[30.013,49.741],[30.027,49.755],[30.033,49.787],[30.047,49.802],[30.073,49.809],[30.105,49.802],[30.203,49.75],[30.292,49.745],[30.386,49.7],[30.466,49.678],[30.579,49.658],[30.595,49.652],[30.631,49.605],[30.728,49.581],[30.76,49.551],[30.832,49.556],[30.917,49.537],[30.953,49.542],[31.002,49.534],[31.031,49.512],[31.029,49.485],[31.041,49.47],[31.102,49.423],[31.131,49.431],[31.218,49.424],[31.24,49.413],[31.269,49.421],[31.307,49.42],[31.362,49.445],[31.446,49.461],[31.459,49.471],[31.469,49.515],[31.483,49.519],[31.514,49.51],[31.524,49.468],[31.549,49.453],[31.578,49.446],[31.594,49.449],[31.62,49.468],[31.67,49.472],[31.739,49.507],[31.762,49.528],[31.785,49.593]]}},{"type":"Feature","properties":{"major":false},"geometry":{"type":"LineString","coordinates":[[34.265,48.423],[34.253,48.389],[34.208,48.362],[34.229,48.285],[34.228,48.266],[34.171,48.235],[34.146,48.207],[34.145,48.161],[34.153,48.137],[34.181,48.101],[34.154,48.014],[34.159,47.986],[34.149,47.973],[34.153,47.94],[34.145,47.904],[34.125,47.87],[34.077,47.843],[34.058,47.803],[34.013,47.75],[34.003,47.725],[34.006,47.705],[34.028,47.681],[34.033,47.655],[34.072,47.611],[34.078,47.581]]}},{"type":"Feature","properties":{"major":false},"geometry":{"type":"LineString","coordinates":[[32.239,48.827],[32.233,48.852],[32.313,48.894],[32.324,48.915],[32.315,48.933],[32.28,48.946],[32.246,48.98],[32.218,48.997],[31.995,49.078],[31.971,49.1],[31.954,49.143],[31.931,49.17],[31.928,49.192],[31.9,49.244],[31.907,49.255],[31.987,49.305],[32.022,49.308],[32.057,49.302],[32.16,49.269],[32.232,49.237],[32.4,49.192],[32.466,49.168],[32.509,49.146],[32.538,49.122],[32.625,49.088],[32.702,49.089],[32.761,49.073],[32.779,49.072],[32.789,49.081]]}},{"type":"Feature","properties":{"major":false},"geometry":{"type":"LineString","coordinates":[[28.84,49.744],[28.862,49.771],[28.89,49.793],[28.894,49.811],[28.91,49.834],[28.912,49.874],[28.997,49.926],[29.01,49.948],[29.019,50.002],[29.034,50.034],[29.031,50.048],[28.93,50.121],[28.88,50.144],[28.86,50.161],[28.811,50.185],[28.787,50.183],[28.734,50.201],[28.659,50.209],[28.632,50.222],[28.623,50.237],[28.634,50.247],[28.664,50.247],[28.774,50.226],[28.824,50.239],[28.876,50.277],[29.049,50.308],[29.068,50.322],[29.089,50.359],[29.174,50.383],[29.212,50.401],[29.228,50.423],[29.235,50.473],[29.254,50.509],[29.35,50.54],[29.373,50.555],[29.406,50.591],[29.419,50.624],[29.464,50.662],[29.512,50.676],[29.54,50.67],[29.58,50.687],[29.593,50.706],[29.57,50.769],[29.575,50.786],[29.617,50.82],[29.65,50.833],[29.827,50.869],[29.857,50.884],[29.891,50.916],[29.949,50.948],[30.016,51],[30.057,51.023],[30.1,51.036],[30.171,51.044],[30.254,51.034]]}},{"type":"Feature","properties":{"major":false},"geometry":{"type":"LineString","coordinates":[[37.822,48.139],[37.767,48.189],[37.771,48.2],[37.838,48.253],[37.85,48.268],[37.851,48.296],[37.839,48.33],[37.818,48.363],[37.774,48.414],[37.78,48.45],[37.766,48.477],[37.726,48.52],[37.652,48.556],[37.56,48.623],[37.527,48.663],[37.525,48.679],[37.554,48.727],[37.564,48.788],[37.583,48.815],[37.655,48.86],[37.762,48.898]]}},{"type":"Feature","properties":{"major":false},"geometry":{"type":"MultiLineString","coordinates":[[[37.515,49.213],[37.421,49.166],[37.406,49.146],[37.402,49.116]],[[37.906,50.009],[37.854,49.981],[37.819,49.969],[37.782,49.939],[37.743,49.891],[37.694,49.857],[37.677,49.823],[37.653,49.795],[37.631,49.744],[37.626,49.71],[37.636,49.655],[37.656,49.6],[37.677,49.564]]]}},{"type":"Feature","properties":{"major":false},"geometry":{"type":"LineString","coordinates":[[39.593,47.991],[39.585,47.969],[39.6,47.942],[39.606,47.901],[39.622,47.862],[39.617,47.826]]}},{"type":"Feature","properties":{"major":false},"geometry":{"type":"LineString","coordinates":[[28.921,46.398],[28.922,46.396],[28.952,46.372],[28.981,46.332],[29.003,46.313],[29.065,46.278],[29.162,46.258],[29.183,46.244],[29.233,46.162],[29.286,46.045],[29.318,46.016],[29.363,45.998],[29.455,45.983],[29.539,45.989],[29.592,46.01],[29.603,46.002],[29.638,45.921],[29.643,45.827]]}},{"type":"Feature","properties":{"major":false},"geometry":{"type":"LineString","coordinates":[[26.392,49.675],[26.435,49.678],[26.47,49.721],[26.783,49.683],[26.991,49.688],[27.177,49.738],[27.23,49.767],[27.258,49.776],[27.4,49.775],[27.457,49.792],[27.528,49.796],[27.618,49.849],[27.71,49.884],[27.744,49.907],[27.761,49.931],[27.757,49.959],[27.744,49.991],[27.724,50.017],[27.687,50.044],[27.679,50.06],[27.685,50.121],[27.669,50.178],[27.669,50.215],[27.655,50.239],[27.653,50.257],[27.665,50.282],[27.723,50.336],[27.73,50.35],[27.738,50.412],[27.725,50.455],[27.754,50.486],[27.718,50.526],[27.699,50.565],[27.627,50.6],[27.62,50.618],[27.623,50.663],[27.619,50.68],[27.607,50.694],[27.504,50.761],[27.387,50.772],[27.303,50.811],[27.177,50.812],[26.981,50.846],[26.956,50.857],[26.928,50.898],[26.895,50.926],[26.791,50.989],[26.772,51.007],[26.763,51.023],[26.764,51.049],[26.75,51.092],[26.782,51.132],[26.788,51.168],[26.657,51.292],[26.658,51.378],[26.688,51.408],[26.694,51.43],[26.687,51.452],[26.656,51.486],[26.646,51.508],[26.646,51.532],[26.657,51.577],[26.651,51.637]]}},{"type":"Feature","properties":{"major":false},"geometry":{"type":"LineString","coordinates":[[23.892,49.986],[23.915,49.951],[24.005,49.955],[24.09,49.947],[24.172,49.92],[24.263,49.907],[24.319,49.915],[24.424,49.905],[24.495,49.909],[24.624,49.95]]}},{"type":"Feature","properties":{"major":false},"geometry":{"type":"MultiLineString","coordinates":[[[34.771,46.142],[34.819,46.142]],[[34.573,46.159],[34.62,46.162]],[[35.384,47.283],[35.367,47.236],[35.373,47.213],[35.364,47.206],[35.215,47.184],[35.175,47.203],[35.144,47.201],[35.117,47.189],[35.095,47.161],[35.021,47.131],[35.005,47.128],[34.96,47.139],[34.889,47.13],[34.823,47.134],[34.732,47.113],[34.682,47.108],[34.558,47.076],[34.539,47.062],[34.507,47.021],[34.447,46.996],[34.423,46.972],[34.411,46.946],[34.407,46.906],[34.398,46.875],[34.368,46.843],[34.268,46.792],[34.246,46.772],[34.263,46.717],[34.256,46.694],[34.242,46.679],[34.2,46.684],[34.167,46.669],[34.162,46.655],[34.173,46.625],[34.173,46.575],[34.159,46.536],[34.166,46.518],[34.184,46.507],[34.225,46.497],[34.237,46.483],[34.278,46.426],[34.28,46.371],[34.321,46.336],[34.327,46.31],[34.358,46.287],[34.388,46.247],[34.434,46.219],[34.461,46.17],[34.462,46.15]]]}},{"type":"Feature","properties":{"major":false},"geometry":{"type":"LineString","coordinates":[[33.61,49],[33.622,48.966]]}},{"type":"Feature","properties":{"major":false},"geometry":{"type":"LineString","coordinates":[[33.668,46.218],[33.703,46.213],[33.728,46.201],[33.818,46.2],[33.889,46.19],[33.923,46.181],[33.983,46.13],[34.031,46.115],[34.266,46.08],[34.366,46.101],[34.484,46.137]]}},{"type":"Feature","properties":{"major":false},"geometry":{"type":"LineString","coordinates":[[35.011,45.618],[35.016,45.622],[35.038,45.615],[35.107,45.536],[35.137,45.518],[35.17,45.51]]}},{"type":"Feature","properties":{"major":false},"geometry":{"type":"LineString","coordinates":[[34.287,48.749],[34.242,48.733]]}},{"type":"Feature","properties":{"major":false},"geometry":{"type":"LineString","coordinates":[[32.717,49.57],[32.705,49.537],[32.705,49.517],[32.676,49.477],[32.697,49.45],[32.748,49.406],[32.789,49.334],[32.789,49.262]]}},{"type":"Feature","properties":{"major":false},"geometry":{"type":"LineString","coordinates":[[31.441,50.014],[31.469,49.979]]}},{"type":"Feature","properties":{"major":false},"geometry":{"type":"LineString","coordinates":[[34.078,47.581],[34.157,47.474]]}},{"type":"Feature","properties":{"major":false},"geometry":{"type":"LineString","coordinates":[[32.789,49.081],[32.859,49.125],[32.998,49.158],[33.038,49.182]]}},{"type":"Feature","properties":{"major":false},"geometry":{"type":"LineString","coordinates":[[30.254,51.034],[30.369,51.037],[30.402,51.045],[30.506,51.05]]}},{"type":"Feature","properties":{"major":false},"geometry":{"type":"MultiLineString","coordinates":[[[34.462,46.15],[34.484,46.137]],[[34.484,46.137],[34.573,46.159]],[[34.62,46.162],[34.771,46.142]]]}},{"type":"Feature","properties":{"major":false},"geometry":{"type":"LineString","coordinates":[[33.286,48.025],[33.267,47.967],[33.268,47.934],[33.276,47.922]]}},{"type":"Feature","properties":{"major":false},"geometry":{"type":"LineString","coordinates":[[35.3,46.707],[35.323,46.637],[35.326,46.581],[35.338,46.555],[35.358,46.517],[35.422,46.44]]}},{"type":"Feature","properties":{"major":false},"geometry":{"type":"LineString","coordinates":[[35.208,48.585],[35.159,48.513]]}},{"type":"Feature","properties":{"major":false},"geometry":{"type":"LineString","coordinates":[[30.603,46.764],[30.625,46.728],[30.693,46.692],[30.71,46.677],[30.746,46.577]]}},{"type":"Feature","properties":{"major":false},"geometry":{"type":"LineString","coordinates":[[28.595,45.682],[28.629,45.549],[28.616,45.492],[28.635,45.387],[28.653,45.36],[28.687,45.336],[28.747,45.311]]}},{"type":"Feature","properties":{"major":false},"geometry":{"type":"MultiLineString","coordinates":[[[31.058,46.897],[31.099,46.877],[31.127,46.843],[31.162,46.825],[31.178,46.721],[31.173,46.684],[31.181,46.655]],[[31.002,47.015],[31.015,46.966],[31.032,46.948],[31.041,46.917],[31.057,46.897]]]}},{"type":"Feature","properties":{"major":false},"geometry":{"type":"LineString","coordinates":[[37.677,49.564],[37.686,49.548],[37.681,49.535],[37.626,49.463],[37.572,49.436],[37.554,49.418],[37.545,49.364],[37.552,49.348],[37.583,49.312],[37.577,49.303],[37.518,49.274],[37.529,49.236],[37.515,49.213]]}},{"type":"Feature","properties":{"major":true},"geometry":{"type":"LineString","coordinates":[[34.3,51.369],[34.3,51.368],[34.308,51.335],[34.283,51.302],[34.244,51.274],[34.164,51.24],[33.964,51.199],[33.922,51.209],[33.903,51.237],[33.882,51.244],[33.876,51.252],[33.872,51.314],[33.848,51.325],[33.826,51.325],[33.712,51.311],[33.662,51.34],[33.597,51.367],[33.589,51.384],[33.577,51.393],[33.436,51.41],[33.378,51.406],[33.33,51.394],[33.242,51.342],[33.212,51.332],[32.963,51.316],[32.915,51.327],[32.795,51.392],[32.714,51.423],[32.545,51.457]]}},{"type":"Feature","properties":{"major":true},"geometry":{"type":"MultiLineString","coordinates":[[[30.507,51.217],[30.515,51.198],[30.53,51.188],[30.531,51.172],[30.511,51.108],[30.507,50.94],[30.468,50.8],[30.482,50.657],[30.515,50.597]],[[31.44,50],[31.469,49.979],[31.493,49.91],[31.484,49.867],[31.457,49.811],[31.45,49.775],[31.467,49.754]],[[31.886,49.555],[31.925,49.551],[31.99,49.532],[32.128,49.475],[32.38,49.394],[32.504,49.337],[32.789,49.262],[33.038,49.182],[33.142,49.13],[33.194,49.094]],[[33.537,49.002],[33.658,48.952],[33.767,48.93],[33.807,48.903],[33.892,48.892],[33.928,48.86],[34.04,48.808],[34.069,48.807],[34.093,48.795],[34.162,48.784],[34.192,48.773],[34.27,48.716],[34.317,48.704],[34.384,48.664],[34.455,48.649],[34.477,48.621],[34.54,48.587],[34.57,48.562]],[[35.106,47.842],[35.107,47.827],[35.149,47.764],[35.158,47.729],[35.165,47.647],[35.163,47.596],[35.148,47.555],[35.114,47.524],[35.063,47.505],[34.997,47.503],[34.898,47.523],[34.73,47.539],[34.644,47.564],[34.594,47.569],[34.446,47.523],[34.319,47.505],[34.204,47.478],[34.157,47.474],[34.058,47.481],[34.008,47.463],[34.002,47.432],[34.007,47.372],[33.997,47.318],[33.965,47.255],[33.943,47.229],[33.866,47.172],[33.8,47.103],[33.706,47.028],[33.676,46.994],[33.644,46.921],[33.603,46.853],[33.569,46.836],[33.54,46.831]]]}},{"type":"Feature","properties":{"major":true},"geometry":{"type":"MultiLineString","coordinates":[[[30.803,51.953],[30.802,51.936],[30.805,51.93],[30.805,51.929],[30.81,51.919],[30.779,51.898],[30.741,51.898],[30.734,51.874],[30.713,51.867],[30.662,51.82],[30.67,51.791],[30.618,51.762],[30.619,51.761],[30.635,51.757],[30.646,51.755],[30.646,51.747],[30.635,51.74],[30.625,51.706],[30.57,51.7],[30.575,51.687],[30.564,51.666],[30.564,51.665],[30.566,51.661],[30.57,51.652],[30.567,51.65],[30.549,51.637],[30.556,51.624],[30.517,51.605],[30.515,51.604],[30.515,51.597],[30.515,51.596],[30.528,51.59],[30.543,51.583],[30.543,51.577],[30.522,51.569],[30.522,51.563],[30.531,51.556],[30.534,51.554],[30.584,51.543],[30.583,51.542],[30.562,51.522],[30.57,51.518],[30.585,51.51],[30.585,51.509],[30.586,51.497],[30.588,51.484],[30.588,51.482],[30.59,51.481],[30.618,51.467],[30.618,51.46],[30.593,51.459],[30.586,51.452],[30.586,51.45],[30.587,51.429],[30.587,51.428],[30.588,51.427],[30.59,51.427],[30.618,51.419],[30.619,51.417],[30.64,51.377],[30.645,51.368],[30.632,51.364],[30.638,51.336],[30.579,51.304],[30.577,51.289],[30.556,51.268],[30.55,51.237],[30.539,51.236],[30.518,51.234],[30.507,51.217]],[[30.515,50.597],[30.502,50.548],[30.528,50.538],[30.522,50.514],[30.53,50.476],[30.581,50.418],[30.584,50.357],[30.622,50.333],[30.644,50.308],[30.672,50.254],[30.693,50.241],[30.727,50.195],[30.748,50.177],[30.829,50.14],[30.895,50.122],[30.915,50.109],[30.968,50.053],[31.015,50.02],[31.04,50.009],[31.131,49.995],[31.179,49.972],[31.235,49.972],[31.323,50.006],[31.364,50.012],[31.406,50.01],[31.44,50]],[[31.462,49.757],[31.505,49.738],[31.561,49.691],[31.609,49.673],[31.649,49.648],[31.738,49.631],[31.775,49.604],[31.801,49.575],[31.824,49.563],[31.888,49.554]],[[33.194,49.094],[33.219,49.085],[33.365,49.074],[33.537,49.002]],[[34.57,48.562],[34.717,48.523],[34.797,48.485],[34.827,48.483],[34.874,48.492],[34.992,48.476],[35.024,48.478],[35.084,48.451],[35.1,48.402],[35.139,48.38],[35.147,48.31],[35.19,48.252],[35.198,48.223],[35.192,48.206],[35.165,48.173],[35.166,48.156],[35.183,48.134],[35.181,48.126],[35.164,48.119],[35.118,48.129],[35.081,48.126],[35.063,48.118],[35.056,48.103],[35.075,48.069],[35.138,48.016],[35.139,47.998],[35.109,47.954],[35.119,47.901],[35.105,47.84]],[[33.54,46.831],[33.481,46.839],[33.438,46.833],[33.371,46.783],[33.317,46.765],[33.262,46.768],[33.187,46.791],[33.157,46.786],[33.057,46.749],[33,46.758],[32.795,46.685],[32.74,46.679],[32.646,46.65]]]}},{"type":"Feature","properties":{"major":true},"geometry":{"type":"LineString","coordinates":[[30.269,46.32],[30.254,46.307],[30.249,46.293],[30.255,46.278],[30.28,46.261],[30.341,46.242],[30.392,46.196],[30.406,46.172],[30.478,46.101]]}},{"type":"Feature","properties":{"major":true},"geometry":{"type":"MultiLineString","coordinates":[[[22.904,49.22],[22.847,49.253],[22.851,49.279],[22.881,49.302],[22.965,49.322],[22.977,49.339],[23.012,49.356],[23.009,49.369],[22.977,49.397],[23.005,49.417],[23.023,49.448],[23.082,49.461],[23.174,49.497],[23.28,49.526],[23.361,49.537],[23.452,49.583],[23.49,49.585],[23.531,49.579],[23.647,49.539],[23.704,49.531],[23.765,49.5],[23.829,49.494],[23.851,49.506],[23.874,49.509],[23.958,49.504],[23.972,49.495],[23.986,49.468],[24.039,49.452],[24.046,49.438],[24.067,49.438],[24.105,49.425],[24.146,49.438],[24.167,49.434],[24.2,49.413],[24.241,49.365],[24.26,49.328],[24.252,49.302],[24.282,49.284],[24.296,49.257],[24.308,49.249],[24.387,49.232],[24.406,49.231],[24.433,49.241],[24.498,49.225],[24.519,49.233],[24.552,49.202],[24.597,49.193],[24.603,49.178],[24.64,49.157],[24.728,49.13],[24.746,49.112],[24.758,49.081],[24.756,49.075],[24.789,49.065],[24.821,49.029],[24.853,49.023],[24.888,49.025],[24.909,49.034],[24.95,49.021],[24.964,48.993],[24.992,48.97],[25.067,48.972],[25.119,48.951],[25.129,48.944],[25.123,48.908],[25.165,48.865],[25.173,48.872],[25.183,48.904],[25.197,48.918],[25.219,48.929],[25.246,48.931],[25.226,48.887],[25.225,48.842],[25.25,48.859],[25.273,48.859],[25.328,48.842],[25.306,48.828],[25.25,48.818],[25.239,48.801],[25.251,48.775],[25.277,48.781],[25.328,48.815],[25.354,48.814],[25.351,48.849],[25.356,48.855],[25.376,48.856],[25.414,48.847],[25.431,48.849],[25.431,48.867],[25.44,48.87],[25.471,48.862],[25.45,48.836],[25.461,48.825],[25.505,48.805],[25.565,48.793],[25.629,48.76],[25.64,48.745],[25.627,48.718],[25.646,48.697],[25.636,48.678],[25.649,48.671],[25.715,48.664],[25.723,48.659],[25.731,48.635],[25.742,48.63],[25.753,48.633],[25.766,48.658],[25.793,48.67],[25.859,48.619],[25.863,48.601],[25.928,48.587],[25.96,48.596],[25.985,48.623],[26.02,48.616],[26.033,48.643],[26.049,48.648],[26.058,48.642],[26.062,48.628],[26.052,48.572],[26.08,48.547],[26.099,48.541],[26.117,48.542],[26.129,48.555],[26.106,48.581],[26.102,48.606],[26.105,48.611],[26.133,48.609],[26.146,48.596],[26.149,48.539],[26.181,48.527],[26.256,48.533],[26.326,48.511],[26.355,48.51],[26.38,48.517],[26.404,48.534],[26.422,48.53],[26.47,48.538],[26.515,48.515],[26.553,48.466],[26.566,48.457],[26.605,48.451],[26.622,48.458],[26.607,48.492],[26.615,48.507],[26.627,48.508],[26.643,48.492],[26.654,48.491],[26.709,48.497],[26.705,48.507],[26.688,48.518],[26.614,48.54],[26.612,48.551],[26.632,48.562],[26.722,48.535],[26.734,48.541],[26.739,48.558],[26.716,48.578],[26.712,48.585],[26.717,48.595],[26.74,48.589],[26.75,48.561],[26.759,48.55],[26.773,48.551],[26.787,48.568],[26.783,48.593],[26.787,48.602],[26.797,48.608],[26.819,48.607],[26.829,48.602],[26.823,48.581],[26.828,48.561],[26.841,48.546],[26.859,48.54],[26.885,48.544],[26.925,48.575],[26.945,48.581],[27.003,48.575],[27.023,48.561],[27.038,48.568],[27.123,48.561],[27.147,48.582],[27.181,48.582],[27.237,48.569],[27.255,48.574],[27.262,48.596],[27.236,48.605],[27.234,48.618],[27.294,48.616],[27.322,48.601],[27.345,48.607],[27.37,48.63],[27.41,48.621],[27.438,48.602],[27.458,48.577],[27.494,48.482],[27.503,48.473],[27.52,48.473],[27.545,48.473],[27.547,48.474],[27.583,48.486],[27.604,48.484],[27.606,48.458],[27.612,48.456],[27.627,48.451],[27.751,48.452],[27.755,48.451],[27.785,48.442],[27.864,48.399],[27.892,48.372],[27.926,48.34],[28.021,48.324],[28.075,48.315],[28.076,48.315],[28.081,48.311],[28.092,48.302],[28.098,48.285],[28.098,48.284],[28.078,48.245],[28.084,48.242],[28.093,48.238],[28.124,48.239],[28.13,48.24],[28.131,48.24],[28.162,48.257],[28.178,48.259],[28.189,48.223],[28.191,48.221],[28.199,48.212],[28.205,48.211],[28.217,48.208],[28.236,48.211],[28.24,48.212],[28.242,48.213],[28.294,48.237],[28.309,48.237],[28.357,48.239],[28.368,48.231],[28.37,48.212],[28.363,48.191],[28.322,48.163],[28.315,48.15],[28.317,48.136],[28.324,48.13],[28.328,48.127],[28.329,48.127],[28.349,48.13],[28.388,48.169],[28.389,48.169],[28.405,48.17],[28.411,48.171],[28.419,48.167],[28.427,48.164],[28.43,48.159],[28.436,48.15],[28.435,48.135],[28.419,48.123],[28.447,48.083],[28.479,48.065],[28.48,48.065],[28.49,48.066],[28.5,48.113],[28.501,48.113],[28.517,48.121]],[[29.898,46.553],[29.901,46.531],[29.916,46.519],[29.92,46.518],[29.96,46.506],[29.97,46.492],[29.971,46.492],[29.989,46.499],[29.994,46.497],[30.002,46.494],[30.003,46.494],[30.021,46.471],[30.013,46.462],[30.076,46.423],[30.077,46.423],[30.078,46.424],[30.101,46.431],[30.102,46.431],[30.131,46.422],[30.146,46.418],[30.159,46.43],[30.168,46.425],[30.203,46.444],[30.236,46.437],[30.249,46.427],[30.257,46.394],[30.282,46.368],[30.288,46.352],[30.283,46.324],[30.269,46.32]],[[30.478,46.101],[30.497,46.085],[30.498,46.084]]]}},{"type":"Feature","properties":{"major":true},"geometry":{"type":"LineString","coordinates":[[28.747,45.231],[28.709,45.227],[28.577,45.248],[28.496,45.278],[28.494,45.279],[28.405,45.295],[28.399,45.297],[28.353,45.313],[28.33,45.323],[28.31,45.348],[28.281,45.402],[28.286,45.422],[28.275,45.433],[28.266,45.441],[28.24,45.451],[28.238,45.452],[28.237,45.452],[28.212,45.45],[28.202,45.443]]}},{"type":"Feature","properties":{"major":true},"geometry":{"type":"MultiLineString","coordinates":[[[24.256,48.322],[24.296,48.307],[24.341,48.307],[24.365,48.285],[24.349,48.251],[24.292,48.191],[24.263,48.139],[24.252,48.101],[24.182,48.035],[24.177,47.996],[24.188,47.979],[24.188,47.959],[24.169,47.938],[24.169,47.924],[24.149,47.913],[24.148,47.912]],[[24.148,47.912],[24.131,47.915],[24.094,47.938],[24.008,47.961],[23.977,47.963],[23.876,47.935],[23.855,47.934],[23.848,47.95],[23.78,47.988],[23.754,47.987],[23.71,47.985],[23.706,47.986],[23.603,48],[23.564,48.006],[23.563,48.006],[23.258,48.171],[23.221,48.179],[23.177,48.178],[23.134,48.168],[23.07,48.129],[22.92,48.081],[22.86,48.094],[22.84,48.089],[22.801,48.116],[22.78,48.122],[22.765,48.108],[22.745,48.117],[22.693,48.102],[22.613,48.099],[22.603,48.099],[22.59,48.099]],[[22.158,48.402],[22.169,48.41],[22.176,48.412],[22.201,48.418],[22.236,48.415],[22.271,48.404],[22.271,48.403],[22.257,48.373]],[[24.866,47.738],[24.859,47.74]],[[24.183,47.892],[24.148,47.912]]]}},{"type":"Feature","properties":{"major":true},"geometry":{"type":"LineString","coordinates":[[30.46,51.179],[30.515,51.138]]}},{"type":"Feature","properties":{"major":true},"geometry":{"type":"LineString","coordinates":[[29.939,51.474],[29.952,51.468],[29.962,51.47],[29.98,51.474],[30.015,51.44],[30.035,51.433],[30.06,51.433],[30.104,51.446],[30.111,51.44],[30.083,51.425],[30.144,51.396],[30.152,51.381],[30.15,51.369],[30.174,51.359],[30.159,51.33],[30.2,51.317],[30.23,51.275],[30.277,51.252],[30.315,51.246],[30.328,51.223],[30.413,51.207],[30.441,51.195],[30.46,51.179]]}},{"type":"Feature","properties":{"major":true},"geometry":{"type":"LineString","coordinates":[[36.811,50.324],[36.821,50.313],[36.847,50.288],[36.854,50.264],[36.833,50.237],[36.833,50.199],[36.803,50.081],[36.812,50.041],[36.861,50.003],[36.873,49.976],[36.948,49.92],[36.964,49.905],[36.967,49.894],[36.922,49.829],[36.862,49.813],[36.745,49.86],[36.696,49.849],[36.699,49.833],[36.661,49.803],[36.641,49.795],[36.605,49.796],[36.582,49.789],[36.552,49.76],[36.518,49.709],[36.498,49.698],[36.457,49.692],[36.422,49.664],[36.38,49.675],[36.357,49.674],[36.347,49.661],[36.333,49.604],[36.333,49.589],[36.343,49.577],[36.383,49.553],[36.466,49.534],[36.536,49.502],[36.575,49.517],[36.634,49.473],[36.682,49.466],[36.715,49.448],[36.748,49.44],[36.771,49.413],[36.792,49.404],[36.812,49.409],[36.845,49.431],[36.881,49.409],[36.936,49.404],[36.99,49.386],[37.059,49.377],[37.114,49.335],[37.145,49.327],[37.149,49.319],[37.139,49.299],[37.108,49.292],[37.086,49.274],[37.001,49.299],[36.956,49.304],[36.95,49.28],[36.926,49.276],[36.917,49.262],[36.921,49.246],[36.944,49.232],[36.908,49.192],[36.916,49.177],[37.022,49.164],[37.06,49.178],[37.093,49.151],[37.138,49.157],[37.179,49.138],[37.248,49.159],[37.255,49.169],[37.263,49.215],[37.276,49.213],[37.299,49.185],[37.306,49.131],[37.323,49.123],[37.402,49.116],[37.42,49.1],[37.471,49.075],[37.478,49.047],[37.498,49.03],[37.525,49.022],[37.552,49.025],[37.58,49.043],[37.622,49.046],[37.639,49.037],[37.651,49.02],[37.615,49.006],[37.628,48.986],[37.608,48.972],[37.608,48.965],[37.714,48.959],[37.751,48.931],[37.762,48.898],[37.772,48.89],[37.802,48.901],[37.885,48.887],[37.923,48.89],[37.95,48.918],[37.991,48.904],[38.01,48.906],[38.046,48.937],[38.171,48.932],[38.21,48.924],[38.231,48.952],[38.252,48.959],[38.244,48.976],[38.241,49.011],[38.249,49.022],[38.272,49.028],[38.309,49.02],[38.344,48.999],[38.512,48.862],[38.569,48.83],[38.642,48.767],[38.706,48.758],[38.73,48.77],[38.8,48.753],[38.886,48.753],[38.927,48.74],[38.971,48.746],[38.984,48.733],[38.997,48.698],[39.016,48.691],[39.031,48.652],[39.056,48.644],[39.109,48.65],[39.139,48.678],[39.161,48.682],[39.19,48.699],[39.211,48.705],[39.24,48.7],[39.268,48.751],[39.324,48.767],[39.368,48.719],[39.376,48.685],[39.41,48.671],[39.468,48.659],[39.516,48.637],[39.54,48.589],[39.561,48.595],[39.616,48.587],[39.633,48.588],[39.69,48.594],[39.809,48.584],[39.813,48.582],[39.835,48.574],[39.853,48.558],[39.855,48.556],[39.869,48.51],[39.865,48.502],[39.842,48.499],[39.844,48.484],[39.864,48.47],[39.903,48.409],[39.924,48.376]]}},{"type":"Feature","properties":{"major":true},"geometry":{"type":"LineString","coordinates":[[33.402,52.345],[33.397,52.34],[33.384,52.3],[33.366,52.282],[33.359,52.248],[33.323,52.222],[33.318,52.21],[33.324,52.152],[33.296,52.131],[33.312,52.111],[33.305,52.085],[33.262,52.035],[33.285,52.021],[33.352,51.994],[33.377,51.958],[33.366,51.947],[33.272,51.929],[33.225,51.906],[33.161,51.904],[33.167,51.885],[33.142,51.88],[33.121,51.851],[33.089,51.836],[33.062,51.793],[33.085,51.741],[33.153,51.693],[33.152,51.682],[33.133,51.665],[33.064,51.635],[33.031,51.629],[33.009,51.611],[32.975,51.604],[32.885,51.609],[32.873,51.6],[32.865,51.579],[32.848,51.568],[32.826,51.567],[32.804,51.577],[32.797,51.569],[32.789,51.577],[32.742,51.556],[32.73,51.574],[32.685,51.555],[32.656,51.568],[32.651,51.556],[32.639,51.549],[32.591,51.543],[32.595,51.529],[32.557,51.508],[32.564,51.49],[32.56,51.473],[32.537,51.453],[32.499,51.446],[32.487,51.449],[32.48,51.464],[32.472,51.467],[32.321,51.44],[32.29,51.453],[32.267,51.442],[32.092,51.408],[32.037,51.377],[32.044,51.358],[31.985,51.364],[31.916,51.35],[31.901,51.354],[31.865,51.384],[31.779,51.419],[31.766,51.44],[31.722,51.449],[31.721,51.464],[31.692,51.499],[31.662,51.512],[31.626,51.511],[31.549,51.522],[31.42,51.496],[31.369,51.494],[31.361,51.502],[31.341,51.487],[31.321,51.482],[31.306,51.459],[31.282,51.45],[31.289,51.425],[31.28,51.417],[31.237,51.418],[31.217,51.377],[31.159,51.35],[31.155,51.334],[31.132,51.33],[31.14,51.308],[31.08,51.286],[31.051,51.265],[31.042,51.251],[31.05,51.233],[30.978,51.199],[30.948,51.195],[30.892,51.151],[30.902,51.139],[30.92,51.138],[30.9,51.111],[30.899,51.097],[30.874,51.099],[30.873,51.091],[30.886,51.083],[30.855,51.054],[30.855,51.039],[30.879,51.028],[30.879,51.021],[30.844,51.015],[30.867,50.99],[30.879,50.963],[30.83,50.932],[30.844,50.912],[30.81,50.907],[30.803,50.898],[30.815,50.884],[30.812,50.874],[30.769,50.833],[30.731,50.817],[30.705,50.794],[30.69,50.788],[30.706,50.747],[30.68,50.727],[30.724,50.71],[30.725,50.7],[30.7,50.665],[30.706,50.643],[30.693,50.624],[30.706,50.61],[30.672,50.603],[30.635,50.603],[30.617,50.591],[30.582,50.584],[30.555,50.526],[30.57,50.514],[30.57,50.507],[30.555,50.498],[30.554,50.483],[30.565,50.438]]}},{"type":"Feature","properties":{"major":true},"geometry":{"type":"LineString","coordinates":[[28.749,45.229],[28.747,45.231],[28.778,45.231],[28.802,45.244],[28.777,45.254],[28.767,45.258],[28.759,45.274],[28.761,45.282],[28.79,45.292],[28.789,45.322],[28.816,45.326],[28.831,45.323],[28.858,45.309],[28.88,45.306],[28.929,45.279],[28.952,45.285],[28.96,45.312],[28.961,45.313],[28.973,45.323],[28.973,45.324],[28.974,45.324],[28.975,45.324],[29.004,45.326],[29.069,45.361],[29.127,45.375],[29.15,45.388],[29.174,45.389],[29.191,45.407],[29.228,45.424],[29.281,45.423],[29.322,45.444],[29.43,45.431],[29.569,45.395],[29.611,45.37],[29.65,45.346],[29.667,45.312],[29.672,45.273],[29.659,45.244],[29.666,45.231],[29.659,45.216]]}},{"type":"Feature","properties":{"major":true},"geometry":{"type":"MultiLineString","coordinates":[[[24.584,48.292],[24.584,48.336],[24.581,48.351],[24.569,48.366],[24.571,48.375],[24.606,48.394],[24.617,48.415],[24.555,48.424],[24.553,48.444],[24.61,48.505],[24.622,48.533],[24.641,48.542],[24.705,48.551],[24.827,48.58],[24.9,48.582],[24.956,48.569],[24.981,48.555],[25.023,48.524],[25.03,48.503],[25.049,48.494],[25.122,48.499],[25.193,48.482],[25.227,48.468],[25.288,48.461],[25.307,48.465],[25.343,48.454],[25.465,48.465],[25.551,48.449],[25.591,48.426],[25.645,48.377],[25.674,48.364],[25.716,48.366],[25.752,48.378],[25.778,48.38],[25.824,48.36],[25.87,48.354],[25.908,48.33],[25.979,48.308],[26.074,48.25],[26.097,48.245],[26.145,48.249],[26.233,48.221],[26.275,48.22],[26.327,48.209],[26.33,48.209],[26.351,48.214],[26.397,48.226],[26.444,48.228],[26.587,48.25],[26.618,48.259]],[[28.212,45.45],[28.212,45.451],[28.199,45.463]]]}},{"type":"Feature","properties":{"major":true},"geometry":{"type":"LineString","coordinates":[[27.473,49.417],[27.592,49.403],[27.615,49.409],[27.637,49.456],[27.65,49.469],[27.69,49.475]]}},{"type":"Feature","properties":{"major":true},"geometry":{"type":"MultiLineString","coordinates":[[[26.502,49.621],[26.709,49.537],[26.73,49.526],[26.744,49.505],[26.822,49.494],[27.047,49.41],[27.175,49.384],[27.318,49.376],[27.342,49.404],[27.4,49.433],[27.451,49.432],[27.473,49.417]],[[27.69,49.475],[27.698,49.473],[27.708,49.484],[27.738,49.535],[27.771,49.527],[27.828,49.556],[27.848,49.558],[27.935,49.555],[27.949,49.552],[27.966,49.527],[28.03,49.523],[28.06,49.508],[28.124,49.507],[28.181,49.489],[28.343,49.469],[28.359,49.436],[28.39,49.407],[28.396,49.388],[28.487,49.335],[28.487,49.329],[28.47,49.316],[28.462,49.299],[28.459,49.225],[28.439,49.185],[28.295,49.103],[28.322,49.047],[28.384,49.034],[28.474,49.033],[28.5,49.021],[28.517,49.03],[28.563,49],[28.648,49.021],[28.658,49.012],[28.648,48.974],[28.662,48.965],[28.665,48.954],[28.623,48.897],[28.679,48.87],[28.727,48.862],[28.779,48.901],[28.802,48.89],[28.836,48.849],[28.958,48.834],[28.989,48.836],[28.986,48.856],[29.035,48.856],[29.062,48.876],[29.076,48.877],[29.138,48.828],[29.138,48.821],[29.117,48.819],[29.102,48.809],[29.097,48.799],[29.111,48.791],[29.108,48.777],[29.062,48.767],[29.071,48.754],[29.099,48.736],[29.14,48.727],[29.156,48.705],[29.179,48.719],[29.216,48.709],[29.29,48.656],[29.304,48.634],[29.295,48.589],[29.307,48.581],[29.316,48.566],[29.364,48.534],[29.384,48.507],[29.485,48.491],[29.537,48.495],[29.658,48.483],[29.685,48.475],[29.741,48.435],[29.747,48.424],[29.728,48.41],[29.746,48.373],[29.796,48.364],[29.81,48.356],[29.81,48.342],[29.864,48.322],[29.89,48.3],[29.96,48.281],[30.028,48.175],[30.048,48.155],[30.083,48.144],[30.322,48.135],[30.33,48.136],[30.347,48.163],[30.502,48.163],[30.559,48.108],[30.594,48.102],[30.598,48.106],[30.584,48.13],[30.603,48.14],[30.649,48.102],[30.714,48.075],[30.721,48.041],[30.765,48.034],[30.799,48.013],[30.858,48.041],[30.946,48.028],[30.981,48.013],[31.026,47.977],[31.081,47.893],[31.118,47.869],[31.118,47.842],[31.127,47.824],[31.166,47.807],[31.179,47.795],[31.19,47.715],[31.269,47.684],[31.249,47.664],[31.228,47.654],[31.224,47.64],[31.179,47.596],[31.201,47.578],[31.289,47.561],[31.344,47.534],[31.399,47.52],[31.532,47.401],[31.556,47.388],[31.6,47.38],[31.649,47.343],[31.701,47.328],[31.762,47.3],[31.767,47.285],[31.764,47.269],[31.749,47.259]]]}},{"type":"Feature","properties":{"major":true},"geometry":{"type":"LineString","coordinates":[[24.95,49.883],[24.913,49.891],[24.786,49.898],[24.722,49.921],[24.643,49.938],[24.629,49.945],[24.608,49.973],[24.579,49.978],[24.544,49.994],[24.537,50.017],[24.505,50.027],[24.478,50.055],[24.448,50.062],[24.439,50.081],[24.406,50.079],[24.348,50.11],[24.354,50.122],[24.396,50.137],[24.388,50.148],[24.39,50.161],[24.409,50.179],[24.387,50.196],[24.334,50.274],[24.282,50.309],[24.25,50.32],[24.231,50.343],[24.241,50.399],[24.251,50.406],[24.245,50.412],[24.272,50.466],[24.259,50.508],[24.282,50.518],[24.306,50.563],[24.259,50.583],[24.259,50.576],[24.218,50.589],[24.194,50.614],[24.171,50.621],[24.165,50.64],[24.152,50.644],[24.126,50.642],[24.108,50.63],[24.076,50.689],[24.074,50.69],[24.081,50.713],[24.027,50.728],[24.026,50.728],[24.012,50.744],[24.025,50.767],[23.974,50.776],[23.959,50.789],[23.957,50.808],[23.969,50.825],[23.992,50.836],[24.011,50.838],[24.02,50.839],[24.037,50.833],[24.046,50.829],[24.049,50.83],[24.094,50.835],[24.13,50.839],[24.142,50.857],[24.143,50.857],[24.13,50.869],[24.047,50.898],[24.046,50.898],[23.979,50.938],[23.97,50.947],[23.964,50.953],[23.964,50.954],[23.955,50.984],[23.944,50.994],[23.943,50.994],[23.926,51.001],[23.911,51.007],[23.916,51.021],[23.904,51.063],[23.878,51.093],[23.856,51.12],[23.854,51.122],[23.858,51.131],[23.874,51.136],[23.863,51.149],[23.816,51.179],[23.793,51.188],[23.765,51.199],[23.742,51.216],[23.706,51.266],[23.687,51.293],[23.684,51.293],[23.657,51.3],[23.637,51.304],[23.635,51.305],[23.628,51.326],[23.634,51.34],[23.638,51.344],[23.661,51.363],[23.665,51.366],[23.683,51.371],[23.683,51.372],[23.679,51.392],[23.678,51.394],[23.681,51.396],[23.694,51.403],[23.697,51.405],[23.648,51.454],[23.646,51.46],[23.662,51.48],[23.615,51.497],[23.614,51.498],[23.613,51.501],[23.607,51.516],[23.602,51.531]]}},{"type":"Feature","properties":{"major":true},"geometry":{"type":"LineString","coordinates":[[23.75,51.485],[23.754,51.509],[23.747,51.525],[23.754,51.532],[23.829,51.558],[23.865,51.612],[23.877,51.622]]}}]}
