{"type":"Feature","properties":{},"geometry":{"type":"MultiPolygon","coordinates":[[[[31.764,52.101],[31.826,52.104],[31.859,52.1],[31.882,52.086],[31.887,52.07],[31.888,52.052],[31.892,52.036],[31.91,52.029],[31.927,52.031],[31.981,52.048],[32.017,52.05],[32.077,52.04],[32.096,52.041],[32.233,52.081],[32.278,52.103],[32.307,52.141],[32.319,52.201],[32.328,52.219],[32.361,52.236],[32.367,52.247],[32.34,52.287],[32.354,52.322],[32.394,52.327],[32.481,52.307],[32.528,52.316],[32.725,52.252],[32.756,52.252],[32.815,52.262],[32.844,52.262],[32.891,52.242],[32.909,52.241],[32.927,52.247],[33.03,52.304],[33.048,52.309],[33.07,52.304],[33.08,52.306],[33.099,52.325],[33.128,52.333],[33.167,52.36],[33.183,52.367],[33.197,52.369],[33.294,52.357],[33.359,52.358],[33.376,52.355],[33.419,52.338],[33.437,52.339],[33.481,52.358],[33.499,52.341],[33.493,52.303],[33.51,52.288],[33.532,52.289],[33.6,52.331],[33.688,52.356],[33.734,52.361],[33.779,52.36],[33.804,52.355],[33.815,52.345],[33.839,52.314],[33.859,52.302],[33.901,52.286],[33.92,52.27],[33.944,52.236],[33.958,52.225],[34.022,52.198],[34.039,52.186],[34.065,52.159],[34.071,52.149],[34.074,52.128],[34.057,52.106],[34.063,52.05],[34.068,52.031],[34.08,52.014],[34.101,51.993],[34.104,51.975],[34.097,51.961],[34.096,51.952],[34.146,51.952],[34.166,51.942],[34.203,51.912],[34.228,51.899],[34.234,51.878],[34.246,51.875],[34.265,51.881],[34.277,51.881],[34.295,51.874],[34.328,51.851],[34.386,51.818],[34.413,51.778],[34.414,51.736],[34.376,51.709],[34.357,51.706],[34.298,51.706],[34.128,51.681],[34.089,51.667],[34.08,51.643],[34.091,51.633],[34.126,51.627],[34.14,51.621],[34.153,51.584],[34.202,51.546],[34.215,51.532],[34.224,51.515],[34.226,51.493],[34.212,51.455],[34.22,51.427],[34.217,51.417],[34.209,51.411],[34.187,51.408],[34.182,51.402],[34.186,51.394],[34.216,51.374],[34.247,51.363],[34.28,51.361],[34.3,51.368],[34.309,51.335],[34.284,51.301],[34.244,51.274],[34.186,51.249],[34.258,51.23],[34.282,51.226],[34.3,51.232],[34.337,51.251],[34.372,51.257],[34.409,51.253],[34.513,51.23],[34.578,51.237],[34.608,51.234],[34.622,51.225],[34.633,51.196],[34.643,51.181],[34.657,51.172],[34.675,51.168],[34.748,51.165],[34.818,51.175],[34.9,51.196],[34.946,51.214],[34.962,51.215],[34.999,51.202],[35.059,51.212],[35.079,51.208],[35.091,51.198],[35.099,51.183],[35.124,51.091],[35.144,51.058],[35.173,51.041],[35.206,51.039],[35.274,51.049],[35.309,51.047],[35.346,51.037],[35.355,51.026],[35.347,51.008],[35.333,51],[35.278,50.993],[35.282,50.982],[35.285,50.944],[35.294,50.938],[35.317,50.934],[35.329,50.929],[35.342,50.916],[35.341,50.876],[35.349,50.864],[35.369,50.846],[35.378,50.834],[35.379,50.797],[35.393,50.788],[35.418,50.779],[35.438,50.762],[35.447,50.734],[35.444,50.709],[35.445,50.688],[35.469,50.669],[35.392,50.646],[35.376,50.635],[35.378,50.622],[35.425,50.5],[35.446,50.476],[35.523,50.46],[35.541,50.45],[35.555,50.433],[35.562,50.41],[35.564,50.392],[35.57,50.376],[35.592,50.36],[35.611,50.352],[35.652,50.341],[35.673,50.34],[35.697,50.345],[35.738,50.382],[35.774,50.387],[35.805,50.412],[35.837,50.423],[35.932,50.43],[36.106,50.421],[36.133,50.412],[36.141,50.393],[36.169,50.384],[36.269,50.281],[36.292,50.274],[36.316,50.275],[36.34,50.281],[36.388,50.306],[36.41,50.305],[36.431,50.297],[36.453,50.294],[36.48,50.281],[36.512,50.276],[36.536,50.268],[36.539,50.265],[36.532,50.229],[36.535,50.22],[36.55,50.212],[36.594,50.204],[36.617,50.206],[36.636,50.214],[36.66,50.244],[36.683,50.261],[36.849,50.324],[36.914,50.339],[36.98,50.342],[37.052,50.335],[37.197,50.362],[37.227,50.377],[37.285,50.415],[37.315,50.423],[37.415,50.432],[37.435,50.425],[37.48,50.34],[37.568,50.313],[37.599,50.291],[37.602,50.249],[37.589,50.215],[37.59,50.204],[37.597,50.197],[37.632,50.174],[37.728,50.079],[37.763,50.063],[37.843,50.039],[37.882,50.023],[37.916,50.003],[37.947,49.978],[37.979,49.941],[37.995,49.921],[37.996,49.906],[38,49.9],[38.067,49.927],[38.079,49.93],[38.09,49.928],[38.119,49.919],[38.166,49.941],[38.171,49.984],[38.164,50.03],[38.174,50.06],[38.19,50.063],[38.254,50.059],[38.281,50.062],[38.3,50.061],[38.314,50.05],[38.344,49.992],[38.356,49.981],[38.376,49.975],[38.42,49.972],[38.461,49.957],[38.498,49.948],[38.57,49.957],[38.619,49.951],[38.665,49.965],[38.676,49.927],[38.687,49.914],[38.748,49.885],[38.852,49.866],[38.886,49.845],[38.911,49.821],[38.937,49.803],[39.032,49.807],[39.049,49.811],[39.068,49.821],[39.117,49.864],[39.156,49.874],[39.183,49.859],[39.238,49.765],[39.261,49.745],[39.29,49.732],[39.328,49.726],[39.367,49.732],[39.406,49.744],[39.444,49.75],[39.499,49.728],[39.558,49.724],[39.57,49.713],[39.597,49.648],[39.623,49.613],[39.653,49.6],[39.689,49.593],[39.729,49.581],[39.781,49.548],[39.802,49.542],[39.829,49.541],[39.889,49.553],[39.915,49.563],[39.974,49.603],[39.998,49.608],[40.018,49.608],[40.116,49.591],[40.131,49.58],[40.126,49.559],[40.111,49.545],[40.072,49.531],[40.054,49.52],[40.035,49.487],[40.041,49.455],[40.062,49.426],[40.101,49.385],[40.148,49.35],[40.16,49.334],[40.157,49.316],[40.143,49.282],[40.142,49.246],[40.134,49.236],[40.091,49.217],[40.058,49.183],[40.038,49.169],[39.98,49.142],[39.952,49.125],[39.931,49.101],[39.926,49.087],[39.923,49.058],[39.919,49.048],[39.907,49.043],[39.891,49.042],[39.832,49.045],[39.749,49.026],[39.698,49.028],[39.681,49.02],[39.674,48.97],[39.688,48.958],[39.726,48.937],[39.747,48.905],[39.759,48.895],[39.782,48.888],[39.862,48.876],[39.908,48.878],[39.938,48.856],[39.95,48.853],[39.972,48.86],[40.009,48.888],[40.034,48.886],[40.054,48.869],[40.053,48.85],[40.039,48.83],[40.02,48.813],[39.975,48.79],[39.935,48.787],[39.824,48.816],[39.801,48.815],[39.779,48.808],[39.759,48.793],[39.736,48.762],[39.711,48.755],[39.703,48.747],[39.632,48.587],[39.67,48.588],[39.69,48.594],[39.809,48.584],[39.835,48.573],[39.855,48.556],[39.87,48.51],[39.865,48.501],[39.842,48.499],[39.845,48.484],[39.865,48.47],[39.896,48.424],[39.914,48.385],[39.924,48.376],[39.884,48.346],[39.816,48.308],[39.885,48.279],[39.905,48.281],[39.957,48.293],[39.979,48.29],[39.993,48.273],[39.991,48.254],[39.978,48.235],[39.96,48.222],[39.913,48.198],[39.894,48.183],[39.843,48.12],[39.831,48.1],[39.829,48.077],[39.844,48.046],[39.843,48.036],[39.779,48.029],[39.768,48.024],[39.76,48.015],[39.762,48.01],[39.78,47.993],[39.794,47.971],[39.796,47.961],[39.794,47.946],[39.777,47.914],[39.783,47.887],[39.776,47.858],[39.759,47.833],[39.734,47.816],[39.701,47.812],[39.601,47.829],[39.57,47.831],[39.509,47.823],[39.457,47.831],[39.414,47.823],[39.392,47.823],[39.34,47.844],[39.32,47.846],[39.174,47.837],[39.114,47.829],[39.093,47.832],[39.039,47.857],[38.877,47.861],[38.831,47.848],[38.796,47.82],[38.771,47.781],[38.753,47.735],[38.745,47.693],[38.735,47.677],[38.713,47.676],[38.678,47.685],[38.662,47.683],[38.643,47.674],[38.588,47.634],[38.562,47.627],[38.353,47.607],[38.319,47.591],[38.293,47.563],[38.274,47.528],[38.26,47.493],[38.264,47.422],[38.258,47.393],[38.233,47.362],[38.203,47.335],[38.191,47.317],[38.189,47.301],[38.201,47.291],[38.22,47.289],[38.258,47.293],[38.276,47.292],[38.292,47.287],[38.301,47.276],[38.298,47.256],[38.285,47.241],[38.223,47.215],[38.203,47.192],[38.197,47.162],[38.201,47.131],[38.217,47.103],[38.196,47.09],[38.142,47.038],[38.108,47.026],[38.13,47.058],[38.13,47.075],[38.104,47.082],[38.072,47.1],[38.026,47.082],[37.962,47.096],[37.95,47.091],[37.861,47.102],[37.753,47.075],[37.71,47.074],[37.581,47.09],[37.546,47.082],[37.483,47.036],[37.378,46.934],[37.352,46.899],[37.335,46.882],[37.313,46.876],[37.317,46.901],[37.295,46.92],[37.261,46.933],[37.227,46.937],[37.208,46.934],[37.162,46.909],[37.047,46.878],[37.029,46.876],[36.985,46.852],[36.939,46.84],[36.886,46.804],[36.854,46.8],[36.862,46.777],[36.849,46.754],[36.83,46.732],[36.812,46.681],[36.794,46.654],[36.769,46.637],[36.744,46.642],[36.744,46.65],[36.772,46.643],[36.79,46.671],[36.802,46.707],[36.803,46.725],[36.758,46.759],[36.71,46.773],[36.696,46.78],[36.679,46.773],[36.634,46.78],[36.617,46.777],[36.59,46.759],[36.524,46.759],[36.483,46.742],[36.432,46.735],[36.4,46.724],[36.371,46.708],[36.303,46.659],[36.284,46.636],[36.278,46.607],[36.271,46.607],[36.271,46.622],[36.268,46.626],[36.248,46.619],[36.246,46.611],[36.241,46.62],[36.244,46.635],[36.231,46.642],[36.217,46.659],[36.189,46.669],[36.134,46.663],[36.062,46.67],[35.926,46.652],[35.902,46.653],[35.771,46.601],[35.742,46.584],[35.661,46.519],[35.629,46.498],[35.511,46.457],[35.491,46.448],[35.445,46.406],[35.38,46.368],[35.285,46.259],[35.264,46.242],[35.209,46.17],[35.185,46.145],[35.162,46.128],[35.121,46.118],[35.097,46.104],[35.062,46.099],[35.039,46.086],[35,46.074],[34.982,46.078],[34.985,46.087],[35.017,46.113],[35.052,46.128],[35.044,46.142],[35.149,46.164],[35.2,46.183],[35.228,46.222],[35.252,46.24],[35.291,46.293],[35.328,46.319],[35.342,46.336],[35.346,46.361],[35.312,46.338],[35.292,46.336],[35.268,46.351],[35.259,46.373],[35.264,46.4],[35.285,46.437],[35.25,46.444],[35.215,46.463],[35.202,46.476],[35.191,46.494],[35.188,46.512],[35.167,46.493],[35.174,46.473],[35.202,46.44],[35.205,46.428],[35.214,46.412],[35.209,46.396],[35.202,46.385],[35.168,46.361],[35.108,46.298],[35.075,46.271],[35.031,46.252],[34.927,46.235],[34.914,46.238],[34.908,46.244],[34.905,46.256],[34.894,46.252],[34.887,46.243],[34.882,46.222],[34.839,46.208],[34.818,46.186],[34.812,46.177],[34.811,46.166],[34.819,46.142],[34.824,46.078],[34.839,46.048],[34.874,45.926],[34.905,45.889],[34.958,45.79],[35.044,45.67],[35.332,45.371],[35.481,45.298],[35.518,45.295],[35.695,45.33],[35.716,45.341],[35.743,45.361],[35.753,45.386],[35.767,45.389],[35.788,45.407],[35.804,45.449],[35.817,45.464],[35.833,45.471],[35.858,45.469],[35.86,45.46],[35.847,45.426],[35.854,45.414],[35.947,45.372],[35.986,45.363],[36.022,45.368],[36.052,45.395],[36.069,45.43],[36.096,45.442],[36.118,45.457],[36.137,45.462],[36.252,45.461],[36.284,45.477],[36.3,45.473],[36.307,45.461],[36.299,45.443],[36.312,45.444],[36.341,45.457],[36.36,45.454],[36.391,45.44],[36.412,45.436],[36.471,45.446],[36.491,45.443],[36.516,45.42],[36.533,45.409],[36.549,45.412],[36.567,45.425],[36.583,45.427],[36.599,45.421],[36.614,45.409],[36.631,45.375],[36.638,45.351],[36.631,45.341],[36.586,45.334],[36.545,45.347],[36.522,45.35],[36.502,45.347],[36.489,45.336],[36.484,45.316],[36.497,45.301],[36.491,45.292],[36.45,45.285],[36.437,45.272],[36.418,45.23],[36.409,45.149],[36.415,45.128],[36.442,45.107],[36.455,45.092],[36.453,45.076],[36.44,45.067],[36.368,45.049],[36.268,45.044],[36.258,45.039],[36.244,45.011],[36.225,45.008],[36.136,45.021],[36.079,45.046],[36.079,45.039],[36.048,45.049],[36.025,45.033],[36.008,45.01],[35.993,44.998],[35.917,45.001],[35.848,44.992],[35.828,44.999],[35.813,45.032],[35.783,45.058],[35.771,45.066],[35.706,45.095],[35.634,45.115],[35.591,45.12],[35.547,45.12],[35.506,45.114],[35.47,45.101],[35.417,45.071],[35.408,45.062],[35.397,45.035],[35.401,45.025],[35.407,45.02],[35.435,45.011],[35.435,45.005],[35.422,45],[35.389,45.002],[35.374,44.998],[35.362,44.987],[35.361,44.974],[35.367,44.943],[35.319,44.97],[35.298,44.956],[35.273,44.967],[35.256,44.959],[35.233,44.926],[35.215,44.914],[35.172,44.907],[35.154,44.901],[35.13,44.869],[35.108,44.825],[35.081,44.794],[35.038,44.799],[35.006,44.835],[34.986,44.84],[34.952,44.842],[34.93,44.836],[34.908,44.821],[34.89,44.818],[34.857,44.824],[34.827,44.812],[34.757,44.821],[34.721,44.811],[34.651,44.777],[34.613,44.765],[34.533,44.753],[34.5,44.743],[34.475,44.724],[34.473,44.73],[34.469,44.73],[34.414,44.674],[34.38,44.631],[34.341,44.558],[34.331,44.545],[34.271,44.545],[34.266,44.542],[34.264,44.532],[34.243,44.507],[34.23,44.5],[34.182,44.493],[34.17,44.482],[34.147,44.45],[34.103,44.425],[34.066,44.42],[33.958,44.383],[33.938,44.381],[33.915,44.384],[33.852,44.402],[33.808,44.395],[33.741,44.396],[33.721,44.4],[33.645,44.425],[33.632,44.434],[33.626,44.453],[33.62,44.462],[33.59,44.49],[33.578,44.497],[33.518,44.491],[33.487,44.51],[33.38,44.565],[33.372,44.576],[33.371,44.588],[33.375,44.585],[33.405,44.59],[33.436,44.605],[33.477,44.607],[33.5,44.614],[33.551,44.615],[33.572,44.621],[33.525,44.629],[33.516,44.634],[33.515,44.649],[33.544,44.683],[33.548,44.699],[33.525,44.772],[33.516,44.785],[33.528,44.793],[33.546,44.837],[33.56,44.85],[33.598,44.859],[33.609,44.872],[33.62,44.909],[33.62,44.931],[33.606,44.987],[33.585,45.018],[33.578,45.053],[33.563,45.094],[33.537,45.117],[33.469,45.149],[33.413,45.185],[33.396,45.19],[33.355,45.186],[33.318,45.175],[33.283,45.161],[33.26,45.156],[33.24,45.18],[33.219,45.187],[33.174,45.197],[33.123,45.238],[33.098,45.248],[33.079,45.272],[33.043,45.285],[32.977,45.326],[32.941,45.343],[32.899,45.354],[32.75,45.363],[32.729,45.361],[32.713,45.353],[32.677,45.326],[32.663,45.32],[32.591,45.32],[32.535,45.338],[32.513,45.341],[32.482,45.409],[32.495,45.436],[32.525,45.458],[32.644,45.522],[32.705,45.531],[32.735,45.545],[32.758,45.565],[32.773,45.567],[32.814,45.559],[32.828,45.562],[32.83,45.57],[32.825,45.587],[32.827,45.596],[32.838,45.608],[32.868,45.63],[32.937,45.663],[33.163,45.736],[33.176,45.743],[33.181,45.755],[33.159,45.769],[33.161,45.779],[33.169,45.784],[33.179,45.78],[33.195,45.765],[33.23,45.751],[33.265,45.754],[33.338,45.786],[33.374,45.797],[33.41,45.827],[33.482,45.854],[33.508,45.843],[33.53,45.842],[33.554,45.847],[33.578,45.868],[33.599,45.877],[33.62,45.882],[33.642,45.876],[33.651,45.871],[33.659,45.859],[33.692,45.861],[33.694,45.914],[33.709,45.91],[33.725,45.916],[33.759,45.922],[33.777,45.93],[33.759,45.941],[33.74,45.948],[33.682,45.958],[33.657,45.957],[33.646,45.954],[33.632,45.944],[33.62,45.951],[33.647,45.98],[33.644,45.985],[33.632,45.988],[33.631,45.997],[33.644,46.015],[33.628,46.068],[33.648,46.09],[33.644,46.105],[33.613,46.145],[33.597,46.156],[33.572,46.149],[33.55,46.136],[33.532,46.122],[33.531,46.107],[33.558,46.095],[33.558,46.087],[33.531,46.086],[33.506,46.08],[33.496,46.068],[33.516,46.046],[33.486,46.053],[33.424,46.053],[33.384,46.088],[33.358,46.104],[33.331,46.107],[33.311,46.087],[33.306,46.092],[33.29,46.095],[33.307,46.106],[33.318,46.12],[33.316,46.131],[33.293,46.136],[33.215,46.128],[33.225,46.154],[33.235,46.224],[33.212,46.206],[33.175,46.153],[33.123,46.136],[33.103,46.138],[33.082,46.149],[33.023,46.17],[33.032,46.141],[33.018,46.128],[32.899,46.115],[32.883,46.121],[32.845,46.121],[32.79,46.134],[32.766,46.136],[32.714,46.12],[32.588,46.104],[32.568,46.097],[32.544,46.08],[32.503,46.076],[32.303,46.117],[32.281,46.128],[32.262,46.128],[32.247,46.171],[32.242,46.177],[32.261,46.189],[32.267,46.195],[32.269,46.205],[32.239,46.195],[32.213,46.193],[32.129,46.21],[32.115,46.215],[32.078,46.249],[32.05,46.266],[32.018,46.258],[31.968,46.276],[31.886,46.32],[31.884,46.309],[31.89,46.284],[31.882,46.279],[31.819,46.281],[31.786,46.292],[31.772,46.303],[31.767,46.318],[31.78,46.332],[31.8,46.342],[31.817,46.348],[31.837,46.35],[31.893,46.341],[31.968,46.351],[32.03,46.389],[32.055,46.391],[32.062,46.394],[32.054,46.406],[32.008,46.449],[31.992,46.454],[31.955,46.451],[31.911,46.456],[31.772,46.496],[31.749,46.5],[31.726,46.501],[31.711,46.495],[31.69,46.479],[31.685,46.461],[31.687,46.43],[31.664,46.472],[31.656,46.478],[31.641,46.482],[31.524,46.564],[31.508,46.588],[31.54,46.57],[31.567,46.55],[31.582,46.545],[31.756,46.554],[31.79,46.547],[31.862,46.519],[31.947,46.519],[32.033,46.506],[32.091,46.513],[32.112,46.512],[32.222,46.495],[32.276,46.471],[32.318,46.464],[32.361,46.467],[32.4,46.478],[32.427,46.499],[32.408,46.517],[32.436,46.543],[32.525,46.593],[32.571,46.596],[32.588,46.604],[32.634,46.633],[32.646,46.65],[32.567,46.618],[32.544,46.622],[32.409,46.569],[32.336,46.562],[32.269,46.588],[32.248,46.607],[32.237,46.604],[32.22,46.591],[32.211,46.588],[32.17,46.581],[32.146,46.56],[32.132,46.57],[32.118,46.607],[32.101,46.615],[32.04,46.623],[32.023,46.629],[31.993,46.657],[31.98,46.677],[31.971,46.713],[31.94,46.759],[31.936,46.8],[31.955,46.831],[31.982,46.86],[32.002,46.895],[32.007,46.915],[32.007,46.93],[31.996,46.94],[31.946,46.947],[31.936,46.955],[31.939,46.968],[31.977,47.009],[31.971,47.016],[31.944,47.019],[31.9,47.014],[31.881,47.015],[31.865,47.026],[31.893,47.068],[31.897,47.093],[31.882,47.119],[31.868,47.127],[31.846,47.134],[31.838,47.149],[31.834,47.179],[31.831,47.187],[31.817,47.197],[31.758,47.216],[31.749,47.228],[31.753,47.249],[31.752,47.256],[31.742,47.259],[31.724,47.237],[31.721,47.232],[31.727,47.221],[31.742,47.209],[31.762,47.201],[31.806,47.193],[31.816,47.181],[31.816,47.123],[31.82,47.117],[31.845,47.113],[31.874,47.094],[31.866,47.077],[31.845,47.054],[31.837,47.008],[31.869,46.999],[31.914,47.003],[31.947,46.999],[31.918,46.976],[31.904,46.961],[31.899,46.944],[31.908,46.926],[31.926,46.923],[31.968,46.937],[31.973,46.915],[31.963,46.886],[31.945,46.86],[31.923,46.848],[31.899,46.843],[31.877,46.828],[31.865,46.807],[31.865,46.78],[31.903,46.745],[31.907,46.738],[31.899,46.694],[31.909,46.663],[31.892,46.644],[31.858,46.629],[31.815,46.623],[31.771,46.628],[31.674,46.653],[31.614,46.65],[31.597,46.643],[31.579,46.617],[31.557,46.615],[31.535,46.627],[31.493,46.629],[31.485,46.632],[31.481,46.646],[31.491,46.663],[31.546,46.728],[31.56,46.749],[31.56,46.759],[31.572,46.766],[31.618,46.813],[31.606,46.826],[31.598,46.82],[31.584,46.794],[31.549,46.78],[31.523,46.75],[31.508,46.745],[31.482,46.759],[31.456,46.796],[31.441,46.8],[31.452,46.775],[31.456,46.755],[31.462,46.749],[31.502,46.728],[31.506,46.72],[31.478,46.684],[31.463,46.675],[31.429,46.638],[31.416,46.629],[31.397,46.626],[31.338,46.601],[31.324,46.606],[31.296,46.609],[31.283,46.615],[31.276,46.607],[31.257,46.616],[31.187,46.629],[31.16,46.629],[31.108,46.618],[31.055,46.613],[30.991,46.601],[30.959,46.583],[30.939,46.588],[30.926,46.584],[30.867,46.556],[30.855,46.553],[30.803,46.56],[30.791,46.553],[30.755,46.516],[30.758,46.503],[30.775,46.478],[30.782,46.457],[30.793,46.452],[30.798,46.446],[30.79,46.441],[30.784,46.431],[30.772,46.396],[30.731,46.359],[30.715,46.348],[30.661,46.351],[30.652,46.345],[30.657,46.339],[30.679,46.328],[30.687,46.32],[30.687,46.309],[30.682,46.3],[30.653,46.26],[30.584,46.19],[30.562,46.162],[30.548,46.148],[30.532,46.142],[30.523,46.134],[30.494,46.08],[30.371,45.998],[30.261,45.895],[30.205,45.856],[30.138,45.82],[30.141,45.833],[30.135,45.889],[30.127,45.891],[30.111,45.875],[30.095,45.815],[30.087,45.814],[30.072,45.821],[30.061,45.813],[30.015,45.84],[29.991,45.847],[29.969,45.839],[29.96,45.819],[29.953,45.772],[29.932,45.792],[29.932,45.8],[29.939,45.81],[29.935,45.816],[29.926,45.814],[29.919,45.8],[29.918,45.783],[29.922,45.769],[29.939,45.752],[29.932,45.724],[29.92,45.741],[29.898,45.752],[29.896,45.764],[29.888,45.765],[29.882,45.763],[29.874,45.752],[29.824,45.748],[29.802,45.737],[29.796,45.717],[29.803,45.704],[29.843,45.691],[29.865,45.672],[29.86,45.669],[29.81,45.649],[29.789,45.655],[29.784,45.647],[29.789,45.635],[29.746,45.623],[29.734,45.614],[29.735,45.641],[29.724,45.667],[29.705,45.688],[29.683,45.697],[29.685,45.704],[29.679,45.752],[29.694,45.781],[29.68,45.798],[29.653,45.814],[29.643,45.827],[29.638,45.826],[29.631,45.814],[29.652,45.789],[29.648,45.781],[29.63,45.763],[29.624,45.752],[29.623,45.736],[29.638,45.71],[29.603,45.691],[29.597,45.652],[29.599,45.604],[29.59,45.559],[29.629,45.547],[29.648,45.545],[29.667,45.548],[29.707,45.573],[29.662,45.526],[29.638,45.514],[29.627,45.495],[29.605,45.487],[29.606,45.478],[29.621,45.454],[29.641,45.442],[29.652,45.443],[29.656,45.452],[29.654,45.464],[29.656,45.474],[29.672,45.477],[29.672,45.454],[29.675,45.45],[29.687,45.454],[29.686,45.457],[29.702,45.457],[29.709,45.453],[29.713,45.436],[29.724,45.468],[29.732,45.476],[29.747,45.463],[29.755,45.447],[29.756,45.428],[29.748,45.414],[29.728,45.416],[29.742,45.405],[29.75,45.386],[29.754,45.364],[29.755,45.313],[29.73,45.258],[29.728,45.248],[29.73,45.238],[29.709,45.223],[29.674,45.214],[29.659,45.216],[29.666,45.231],[29.665,45.238],[29.659,45.244],[29.672,45.273],[29.667,45.312],[29.65,45.346],[29.57,45.395],[29.431,45.43],[29.354,45.436],[29.322,45.444],[29.299,45.429],[29.282,45.422],[29.228,45.424],[29.192,45.406],[29.174,45.389],[29.15,45.388],[29.128,45.375],[29.07,45.361],[29.018,45.331],[29.005,45.326],[28.974,45.324],[28.966,45.32],[28.96,45.311],[28.957,45.292],[28.953,45.285],[28.93,45.279],[28.91,45.287],[28.881,45.306],[28.858,45.309],[28.832,45.322],[28.816,45.326],[28.79,45.321],[28.79,45.292],[28.762,45.282],[28.76,45.274],[28.767,45.258],[28.803,45.244],[28.791,45.235],[28.779,45.231],[28.71,45.227],[28.577,45.248],[28.494,45.279],[28.405,45.295],[28.33,45.323],[28.311,45.348],[28.281,45.402],[28.286,45.422],[28.267,45.44],[28.238,45.452],[28.213,45.45],[28.199,45.462],[28.217,45.493],[28.271,45.522],[28.342,45.518],[28.417,45.504],[28.481,45.502],[28.502,45.509],[28.506,45.521],[28.498,45.559],[28.51,45.571],[28.537,45.58],[28.523,45.593],[28.511,45.635],[28.474,45.658],[28.481,45.669],[28.515,45.702],[28.533,45.71],[28.561,45.717],[28.568,45.725],[28.561,45.743],[28.577,45.762],[28.644,45.767],[28.67,45.777],[28.673,45.787],[28.67,45.812],[28.677,45.817],[28.706,45.821],[28.738,45.838],[28.745,45.85],[28.746,45.871],[28.728,45.922],[28.729,45.939],[28.74,45.953],[28.758,45.961],[28.932,45.993],[28.957,46.001],[28.959,46.021],[28.941,46.065],[28.939,46.089],[28.946,46.105],[28.981,46.132],[29.003,46.159],[29.015,46.183],[29.01,46.204],[28.951,46.243],[28.934,46.259],[28.933,46.273],[28.946,46.305],[28.945,46.321],[28.927,46.368],[28.919,46.405],[28.925,46.433],[28.946,46.455],[29.02,46.49],[29.075,46.504],[29.163,46.538],[29.184,46.538],[29.2,46.524],[29.207,46.503],[29.206,46.406],[29.183,46.378],[29.184,46.367],[29.201,46.357],[29.223,46.366],[29.259,46.394],[29.283,46.397],[29.29,46.41],[29.286,46.439],[29.289,46.452],[29.307,46.472],[29.321,46.469],[29.344,46.434],[29.362,46.416],[29.375,46.416],[29.418,46.462],[29.437,46.477],[29.458,46.485],[29.481,46.482],[29.486,46.476],[29.486,46.462],[29.475,46.448],[29.473,46.44],[29.481,46.425],[29.541,46.413],[29.556,46.404],[29.569,46.382],[29.583,46.37],[29.599,46.363],[29.616,46.362],[29.632,46.366],[29.646,46.376],[29.653,46.392],[29.648,46.416],[29.654,46.423],[29.683,46.423],[29.703,46.428],[29.714,46.443],[29.714,46.471],[29.727,46.456],[29.78,46.421],[29.8,46.398],[29.807,46.381],[29.808,46.355],[29.828,46.339],[29.848,46.341],[29.885,46.364],[29.919,46.374],[30.037,46.369],[30.081,46.374],[30.107,46.392],[30.132,46.423],[30.118,46.429],[30.102,46.431],[30.087,46.429],[30.077,46.423],[30.06,46.437],[30.014,46.462],[30.022,46.471],[30.003,46.494],[29.989,46.499],[29.971,46.492],[29.96,46.506],[29.916,46.519],[29.902,46.531],[29.899,46.553],[29.938,46.557],[29.95,46.579],[29.931,46.619],[29.932,46.632],[29.944,46.662],[29.953,46.725],[29.951,46.743],[29.932,46.772],[29.928,46.81],[29.917,46.814],[29.899,46.807],[29.89,46.807],[29.872,46.838],[29.844,46.854],[29.754,46.858],[29.736,46.867],[29.712,46.893],[29.696,46.905],[29.632,46.914],[29.598,46.935],[29.567,46.935],[29.559,46.946],[29.572,47.012],[29.595,47.032],[29.603,47.046],[29.602,47.061],[29.595,47.075],[29.583,47.085],[29.57,47.091],[29.551,47.09],[29.531,47.066],[29.52,47.06],[29.511,47.066],[29.478,47.112],[29.481,47.117],[29.53,47.124],[29.545,47.136],[29.551,47.16],[29.54,47.213],[29.544,47.234],[29.569,47.243],[29.58,47.26],[29.579,47.284],[29.57,47.307],[29.557,47.324],[29.54,47.334],[29.521,47.339],[29.481,47.338],[29.471,47.323],[29.459,47.293],[29.442,47.282],[29.426,47.279],[29.41,47.28],[29.381,47.293],[29.368,47.308],[29.364,47.337],[29.359,47.353],[29.346,47.366],[29.301,47.378],[29.281,47.411],[29.251,47.425],[29.233,47.446],[29.218,47.452],[29.202,47.447],[29.192,47.436],[29.182,47.43],[29.164,47.439],[29.156,47.45],[29.13,47.493],[29.117,47.533],[29.131,47.56],[29.156,47.583],[29.182,47.613],[29.192,47.651],[29.191,47.686],[29.197,47.718],[29.239,47.756],[29.235,47.767],[29.222,47.775],[29.187,47.783],[29.178,47.79],[29.178,47.801],[29.187,47.818],[29.233,47.857],[29.236,47.871],[29.226,47.876],[29.187,47.884],[29.173,47.891],[29.165,47.906],[29.156,47.94],[29.148,47.955],[29.136,47.968],[29.124,47.976],[29.093,47.98],[29.061,47.97],[29.017,47.931],[28.981,47.926],[28.95,47.935],[28.915,47.953],[28.883,47.977],[28.856,48.008],[28.833,48.025],[28.828,48.057],[28.812,48.083],[28.806,48.104],[28.799,48.112],[28.771,48.124],[28.735,48.129],[28.666,48.129],[28.574,48.155],[28.542,48.156],[28.519,48.149],[28.501,48.113],[28.49,48.065],[28.48,48.065],[28.447,48.083],[28.419,48.122],[28.436,48.135],[28.437,48.15],[28.427,48.163],[28.412,48.171],[28.389,48.169],[28.365,48.142],[28.35,48.13],[28.329,48.127],[28.317,48.135],[28.316,48.149],[28.322,48.163],[28.363,48.191],[28.37,48.212],[28.368,48.231],[28.358,48.239],[28.341,48.24],[28.294,48.236],[28.24,48.212],[28.217,48.208],[28.2,48.212],[28.189,48.223],[28.186,48.242],[28.179,48.259],[28.162,48.257],[28.131,48.24],[28.093,48.237],[28.079,48.245],[28.098,48.284],[28.093,48.302],[28.076,48.315],[28.056,48.321],[27.967,48.329],[27.926,48.339],[27.865,48.399],[27.85,48.41],[27.785,48.442],[27.752,48.452],[27.627,48.451],[27.607,48.458],[27.605,48.484],[27.583,48.486],[27.557,48.474],[27.504,48.472],[27.481,48.451],[27.42,48.417],[27.403,48.411],[27.39,48.415],[27.361,48.433],[27.342,48.436],[27.306,48.424],[27.246,48.374],[27.209,48.361],[27.176,48.362],[27.069,48.389],[27.037,48.4],[27.026,48.397],[27.025,48.39],[27.033,48.36],[27.028,48.358],[27.005,48.359],[26.991,48.362],[26.981,48.356],[26.943,48.351],[26.909,48.365],[26.876,48.384],[26.843,48.394],[26.832,48.391],[26.826,48.378],[26.817,48.372],[26.788,48.376],[26.778,48.366],[26.789,48.326],[26.79,48.307],[26.786,48.294],[26.774,48.287],[26.755,48.286],[26.736,48.292],[26.699,48.325],[26.68,48.33],[26.669,48.309],[26.636,48.295],[26.625,48.283],[26.618,48.259],[26.587,48.249],[26.445,48.228],[26.397,48.226],[26.33,48.209],[26.303,48.212],[26.296,48.179],[26.297,48.156],[26.287,48.125],[26.271,48.094],[26.255,48.072],[26.205,48.037],[26.173,47.993],[26.126,47.978],[26.029,47.978],[25.966,47.965],[25.918,47.968],[25.901,47.966],[25.871,47.957],[25.818,47.953],[25.753,47.935],[25.262,47.899],[25.219,47.878],[25.122,47.77],[25.08,47.743],[25.017,47.725],[24.897,47.71],[24.878,47.719],[24.808,47.796],[24.794,47.804],[24.713,47.826],[24.679,47.84],[24.661,47.854],[24.649,47.895],[24.634,47.908],[24.608,47.922],[24.562,47.941],[24.542,47.944],[24.486,47.943],[24.429,47.953],[24.409,47.952],[24.386,47.944],[24.347,47.921],[24.298,47.92],[24.231,47.897],[24.209,47.898],[24.15,47.913],[24.131,47.915],[24.095,47.938],[24.025,47.953],[24.009,47.961],[23.977,47.962],[23.877,47.934],[23.855,47.934],[23.848,47.95],[23.797,47.982],[23.78,47.988],[23.711,47.985],[23.646,47.997],[23.582,48.002],[23.563,48.006],[23.514,47.999],[23.504,47.993],[23.494,47.981],[23.482,47.972],[23.461,47.971],[23.394,47.993],[23.375,47.991],[23.36,47.993],[23.338,48.011],[23.29,48.038],[23.249,48.071],[23.231,48.08],[23.162,48.096],[23.139,48.098],[23.119,48.092],[23.099,48.071],[23.077,48.025],[23.063,48.007],[23.02,47.985],[23.004,47.983],[22.988,47.986],[22.939,48.006],[22.924,48.005],[22.916,47.993],[22.924,47.973],[22.916,47.959],[22.898,47.951],[22.878,47.947],[22.841,47.967],[22.832,47.979],[22.849,47.993],[22.851,48.009],[22.862,48.028],[22.855,48.047],[22.831,48.072],[22.801,48.091],[22.766,48.105],[22.762,48.109],[22.746,48.116],[22.693,48.102],[22.621,48.102],[22.605,48.097],[22.583,48.125],[22.569,48.157],[22.556,48.177],[22.481,48.243],[22.469,48.244],[22.45,48.238],[22.434,48.237],[22.395,48.245],[22.371,48.237],[22.357,48.243],[22.308,48.294],[22.297,48.314],[22.299,48.349],[22.291,48.358],[22.257,48.357],[22.257,48.373],[22.272,48.403],[22.236,48.415],[22.202,48.418],[22.169,48.41],[22.159,48.402],[22.133,48.405],[22.134,48.477],[22.145,48.493],[22.148,48.509],[22.137,48.549],[22.139,48.57],[22.154,48.586],[22.219,48.621],[22.243,48.651],[22.294,48.668],[22.31,48.682],[22.322,48.7],[22.329,48.722],[22.328,48.743],[22.331,48.756],[22.356,48.776],[22.366,48.794],[22.362,48.836],[22.362,48.844],[22.369,48.856],[22.412,48.888],[22.415,48.912],[22.449,48.971],[22.467,48.981],[22.505,48.984],[22.521,48.993],[22.52,49.01],[22.525,49.033],[22.54,49.072],[22.561,49.086],[22.581,49.081],[22.618,49.054],[22.643,49.043],[22.722,49.041],[22.744,49.046],[22.755,49.045],[22.784,49.021],[22.813,49.013],[22.835,49],[22.855,48.994],[22.867,49.01],[22.843,49.043],[22.844,49.057],[22.854,49.076],[22.853,49.085],[22.841,49.095],[22.778,49.12],[22.749,49.146],[22.716,49.161],[22.721,49.162],[22.706,49.169],[22.688,49.156],[22.682,49.161],[22.703,49.195],[22.717,49.23],[22.734,49.261],[22.738,49.275],[22.72,49.383],[22.68,49.419],[22.673,49.436],[22.667,49.478],[22.641,49.529],[22.666,49.567],[22.742,49.634],[22.766,49.674],[22.777,49.68],[22.81,49.686],[22.827,49.697],[22.888,49.77],[22.898,49.777],[22.924,49.785],[22.933,49.791],[22.951,49.827],[22.993,49.854],[23.101,49.957],[23.141,49.985],[23.178,50.004],[23.208,50.034],[23.436,50.193],[23.565,50.258],[23.644,50.313],[23.658,50.326],[23.671,50.354],[23.682,50.368],[23.696,50.377],[23.713,50.382],[23.748,50.389],[23.929,50.391],[23.981,50.405],[24.008,50.448],[24.011,50.493],[24.075,50.514],[24.108,50.541],[24.103,50.544],[24.095,50.557],[24.085,50.604],[24.108,50.63],[24.083,50.669],[24.075,50.69],[24.081,50.713],[24.054,50.717],[24.027,50.728],[24.013,50.743],[24.026,50.761],[24.026,50.767],[23.998,50.769],[23.974,50.776],[23.959,50.789],[23.958,50.808],[23.97,50.825],[23.993,50.836],[24.02,50.839],[24.047,50.829],[24.067,50.835],[24.1,50.835],[24.131,50.839],[24.143,50.856],[24.13,50.869],[24.047,50.898],[23.979,50.938],[23.964,50.953],[23.955,50.984],[23.944,50.994],[23.912,51.007],[23.916,51.021],[23.904,51.063],[23.896,51.076],[23.869,51.102],[23.854,51.122],[23.858,51.131],[23.875,51.136],[23.864,51.148],[23.816,51.179],[23.765,51.199],[23.743,51.216],[23.687,51.292],[23.67,51.299],[23.651,51.3],[23.635,51.305],[23.629,51.326],[23.634,51.339],[23.648,51.354],[23.666,51.366],[23.684,51.37],[23.678,51.384],[23.679,51.394],[23.686,51.401],[23.698,51.404],[23.689,51.416],[23.649,51.454],[23.647,51.46],[23.663,51.48],[23.615,51.497],[23.608,51.511],[23.606,51.517],[23.615,51.513],[23.624,51.516],[23.629,51.531],[23.626,51.541],[23.593,51.597],[23.594,51.605],[23.617,51.625],[23.726,51.645],[23.75,51.644],[23.82,51.631],[23.845,51.63],[23.885,51.62],[23.913,51.599],[23.941,51.582],[23.981,51.586],[24.131,51.67],[24.244,51.718],[24.272,51.743],[24.296,51.808],[24.312,51.828],[24.348,51.861],[24.37,51.875],[24.391,51.88],[24.64,51.892],[24.722,51.882],[25.003,51.91],[25.093,51.94],[25.138,51.949],[25.183,51.95],[25.352,51.921],[25.683,51.918],[25.768,51.929],[25.981,51.903],[26.051,51.905],[26.081,51.901],[26.145,51.865],[26.175,51.857],[26.408,51.851],[26.42,51.847],[26.417,51.831],[26.419,51.821],[26.432,51.81],[26.446,51.806],[26.666,51.801],[26.855,51.749],[26.921,51.743],[27.022,51.765],[27.11,51.762],[27.151,51.757],[27.178,51.747],[27.184,51.731],[27.181,51.683],[27.189,51.664],[27.204,51.655],[27.248,51.656],[27.277,51.651],[27.274,51.634],[27.26,51.612],[27.254,51.595],[27.267,51.587],[27.329,51.597],[27.388,51.591],[27.409,51.592],[27.431,51.598],[27.459,51.617],[27.477,51.624],[27.512,51.623],[27.621,51.596],[27.677,51.595],[27.693,51.589],[27.705,51.568],[27.697,51.543],[27.664,51.493],[27.684,51.476],[27.714,51.464],[27.73,51.465],[27.741,51.471],[27.793,51.517],[27.797,51.531],[27.793,51.565],[27.8,51.585],[27.813,51.602],[27.831,51.613],[27.854,51.615],[27.876,51.608],[27.936,51.567],[27.955,51.561],[27.973,51.558],[28.071,51.558],[28.09,51.562],[28.114,51.576],[28.166,51.633],[28.188,51.645],[28.21,51.652],[28.23,51.651],[28.245,51.641],[28.249,51.631],[28.249,51.613],[28.258,51.602],[28.311,51.574],[28.334,51.528],[28.347,51.525],[28.36,51.529],[28.386,51.545],[28.435,51.566],[28.461,51.572],[28.488,51.572],[28.578,51.56],[28.604,51.554],[28.613,51.54],[28.615,51.52],[28.637,51.45],[28.647,51.439],[28.664,51.434],[28.691,51.443],[28.704,51.443],[28.718,51.412],[28.729,51.401],[28.747,51.414],[28.752,51.429],[28.749,51.467],[28.752,51.484],[28.772,51.511],[28.8,51.533],[28.832,51.548],[28.864,51.559],[28.893,51.563],[28.955,51.563],[28.981,51.569],[29,51.582],[29.024,51.614],[29.044,51.626],[29.063,51.631],[29.084,51.631],[29.124,51.625],[29.148,51.616],[29.16,51.603],[29.181,51.567],[29.215,51.535],[29.227,51.519],[29.23,51.493],[29.221,51.467],[29.228,51.456],[29.244,51.448],[29.265,51.433],[29.285,51.392],[29.297,51.374],[29.32,51.366],[29.341,51.37],[29.38,51.392],[29.403,51.396],[29.446,51.385],[29.466,51.385],[29.505,51.437],[29.568,51.45],[29.597,51.474],[29.618,51.486],[29.638,51.491],[29.661,51.493],[29.683,51.491],[29.7,51.484],[29.717,51.466],[29.725,51.45],[29.738,51.439],[29.829,51.43],[29.847,51.433],[29.857,51.44],[29.874,51.459],[29.886,51.465],[29.897,51.464],[29.913,51.457],[29.925,51.458],[29.986,51.478],[30.009,51.482],[30.149,51.484],[30.177,51.479],[30.205,51.466],[30.257,51.425],[30.307,51.41],[30.32,51.402],[30.329,51.389],[30.33,51.37],[30.32,51.342],[30.317,51.341],[30.325,51.33],[30.355,51.305],[30.368,51.298],[30.384,51.294],[30.428,51.292],[30.443,51.283],[30.465,51.262],[30.508,51.258],[30.532,51.245],[30.54,51.235],[30.551,51.237],[30.555,51.243],[30.557,51.267],[30.577,51.289],[30.58,51.304],[30.61,51.318],[30.638,51.336],[30.632,51.364],[30.646,51.367],[30.645,51.373],[30.632,51.384],[30.618,51.419],[30.606,51.425],[30.588,51.427],[30.584,51.439],[30.586,51.452],[30.594,51.459],[30.618,51.46],[30.618,51.467],[30.597,51.474],[30.589,51.482],[30.584,51.494],[30.59,51.502],[30.585,51.509],[30.563,51.522],[30.576,51.531],[30.584,51.542],[30.534,51.553],[30.523,51.563],[30.523,51.569],[30.543,51.576],[30.543,51.583],[30.515,51.596],[30.515,51.604],[30.544,51.62],[30.557,51.624],[30.55,51.637],[30.57,51.652],[30.564,51.665],[30.576,51.686],[30.57,51.7],[30.625,51.706],[30.631,51.716],[30.635,51.74],[30.646,51.747],[30.646,51.755],[30.618,51.761],[30.671,51.791],[30.67,51.806],[30.662,51.819],[30.703,51.854],[30.714,51.867],[30.735,51.874],[30.742,51.898],[30.779,51.898],[30.788,51.901],[30.811,51.918],[30.811,51.925],[30.805,51.929],[30.803,51.939],[30.831,51.946],[30.858,51.958],[30.879,51.974],[30.881,51.988],[30.897,51.998],[30.908,51.998],[30.915,51.993],[30.941,51.994],[30.95,52.007],[30.941,52.02],[30.911,52.023],[30.925,52.042],[30.919,52.059],[30.934,52.07],[30.959,52.075],[31.096,52.08],[31.135,52.077],[31.159,52.068],[31.205,52.044],[31.229,52.038],[31.252,52.044],[31.284,52.081],[31.304,52.097],[31.383,52.117],[31.475,52.118],[31.65,52.097],[31.764,52.101]]],[[[29.919,45.691],[30.076,45.792],[30.126,45.811],[29.908,45.666],[29.807,45.614],[29.731,45.591],[29.781,45.611],[29.801,45.622],[29.815,45.641],[29.857,45.649],[29.919,45.691]]],[[[32.989,46.043],[32.999,46.035],[33.045,46.038],[33.057,46.025],[33.04,46.012],[32.619,46.06],[32.631,46.066],[32.639,46.06],[32.783,46.046],[32.852,46.056],[32.882,46.055],[32.914,46.039],[32.955,46.052],[32.979,46.053],[32.989,46.043]]],[[[31.94,46.205],[32.071,46.182],[32.166,46.149],[32.144,46.153],[32.102,46.167],[31.737,46.221],[31.58,46.263],[31.549,46.282],[31.522,46.313],[31.505,46.355],[31.504,46.373],[31.522,46.368],[31.538,46.326],[31.554,46.296],[31.578,46.276],[31.618,46.259],[31.94,46.205]]]]}}
